{
  "type": "FeatureCollection",
  "features": [
    {
      "type": "Feature",
      "properties": {
        "island_id": "krk",
        "name": "Krk",
        "county_id": "primorje-gorski-kotar"
      },
      "geometry": {
        "type": "Polygon",
        "coordinates": [
          [
            [14.723, 44.943],
            [14.706, 44.947],
            [14.658, 44.97],
            [14.629, 44.978],
            [14.625, 44.986],
            [14.624, 45.001],
            [14.626, 45.037],
            [14.621, 45.046],
            [14.603, 45.039],
            [14.603, 45.032],
            [14.617, 45.025],
            [14.591, 45.023],
            [14.511, 45.032],
            [14.485, 45.038],
            [14.46, 45.052],
            [14.439, 45.071],
            [14.425, 45.087],
            [14.433, 45.096],
            [14.442, 45.1],
            [14.451, 45.101],
            [14.463, 45.101],
            [14.466, 45.105],
            [14.466, 45.115],
            [14.467, 45.124],
            [14.476, 45.128],
            [14.514, 45.129],
            [14.53, 45.135],
            [14.521, 45.149],
            [14.534, 45.162],
            [14.54, 45.17],
            [14.542, 45.179],
            [14.539, 45.187],
            [14.536, 45.194],
            [14.537, 45.202],
            [14.548, 45.21],
            [14.55, 45.221],
            [14.549, 45.23],
            [14.544, 45.236],
            [14.534, 45.238],
            [14.549, 45.249],
            [14.563, 45.25],
            [14.596, 45.238],
            [14.585, 45.238],
            [14.582, 45.238],
            [14.584, 45.23],
            [14.587, 45.224],
            [14.591, 45.22],
            [14.596, 45.216],
            [14.611, 45.198],
            [14.624, 45.175],
            [14.597, 45.166],
            [14.613, 45.159],
            [14.644, 45.157],
            [14.665, 45.162],
            [14.671, 45.143],
            [14.659, 45.108],
            [14.665, 45.087],
            [14.678, 45.077],
            [14.696, 45.073],
            [14.74, 45.073],
            [14.74, 45.044],
            [14.8, 45.005],
            [14.815, 44.977],
            [14.809, 44.977],
            [14.797, 44.971],
            [14.785, 44.969],
            [14.772, 44.971],
            [14.761, 44.977],
            [14.747, 44.97],
            [14.747, 44.964],
            [14.761, 44.955],
            [14.757, 44.949],
            [14.742, 44.945],
            [14.723, 44.943]
          ]
        ]
      }
    },
    {
      "type": "Feature",
      "properties": {
        "island_id": "cres",
        "name": "Cres",
        "county_id": "primorje-gorski-kotar"
      },
      "geometry": {
        "type": "Polygon",
        "coordinates": [
          [
            [14.514, 44.662],
            [14.508, 44.653],
            [14.509, 44.645],
            [14.515, 44.642],
            [14.528, 44.648],
            [14.534, 44.634],
            [14.527, 44.627],
            [14.52, 44.622],
            [14.513, 44.619],
            [14.502, 44.62],
            [14.473, 44.62],
            [14.428, 44.657],
            [14.395, 44.708],
            [14.397, 44.752],
            [14.393, 44.753],
            [14.39, 44.754],
            [14.387, 44.756],
            [14.384, 44.758],
            [14.375, 44.754],
            [14.368, 44.761],
            [14.364, 44.774],
            [14.363, 44.807],
            [14.362, 44.816],
            [14.357, 44.82],
            [14.346, 44.821],
            [14.33, 44.834],
            [14.314, 44.894],
            [14.294, 44.909],
            [14.295, 44.913],
            [14.296, 44.916],
            [14.302, 44.922],
            [14.292, 44.94],
            [14.302, 44.943],
            [14.325, 44.937],
            [14.332, 44.932],
            [14.35, 44.913],
            [14.36, 44.909],
            [14.377, 44.908],
            [14.387, 44.909],
            [14.393, 44.915],
            [14.397, 44.929],
            [14.394, 44.935],
            [14.389, 44.95],
            [14.39, 44.96],
            [14.404, 44.95],
            [14.411, 44.956],
            [14.391, 44.969],
            [14.377, 44.987],
            [14.347, 45.048],
            [14.341, 45.056],
            [14.287, 45.101],
            [14.278, 45.113],
            [14.278, 45.128],
            [14.289, 45.149],
            [14.3, 45.162],
            [14.314, 45.172],
            [14.332, 45.176],
            [14.356, 45.169],
            [14.364, 45.158],
            [14.361, 45.118],
            [14.363, 45.094],
            [14.37, 45.076],
            [14.388, 45.039],
            [14.412, 45.004],
            [14.418, 44.998],
            [14.431, 44.99],
            [14.454, 44.988],
            [14.466, 44.984],
            [14.473, 44.971],
            [14.471, 44.954],
            [14.463, 44.936],
            [14.452, 44.922],
            [14.459, 44.915],
            [14.45, 44.898],
            [14.448, 44.884],
            [14.452, 44.851],
            [14.465, 44.821],
            [14.467, 44.805],
            [14.452, 44.799],
            [14.457, 44.788],
            [14.469, 44.773],
            [14.473, 44.765],
            [14.474, 44.755],
            [14.468, 44.742],
            [14.466, 44.73],
            [14.472, 44.708],
            [14.486, 44.692],
            [14.501, 44.678],
            [14.514, 44.662]
          ]
        ]
      }
    },
    {
      "type": "Feature",
      "properties": {
        "island_id": "losinj",
        "name": "Lošinj",
        "county_id": "primorje-gorski-kotar"
      },
      "geometry": {
        "type": "Polygon",
        "coordinates": [
          [
            [14.446, 44.566],
            [14.527, 44.504],
            [14.534, 44.484],
            [14.512, 44.482],
            [14.485, 44.501],
            [14.452, 44.532],
            [14.438, 44.539],
            [14.438, 44.545],
            [14.459, 44.541],
            [14.466, 44.539],
            [14.438, 44.565],
            [14.423, 44.574],
            [14.404, 44.58],
            [14.397, 44.569],
            [14.387, 44.566],
            [14.375, 44.568],
            [14.363, 44.573],
            [14.363, 44.58],
            [14.37, 44.58],
            [14.37, 44.58],
            [14.369, 44.582],
            [14.365, 44.587],
            [14.383, 44.603],
            [14.376, 44.623],
            [14.349, 44.655],
            [14.345, 44.669],
            [14.337, 44.7],
            [14.336, 44.717],
            [14.356, 44.707],
            [14.381, 44.699],
            [14.397, 44.686],
            [14.39, 44.662],
            [14.395, 44.653],
            [14.4, 44.638],
            [14.404, 44.61],
            [14.41, 44.601],
            [14.446, 44.566]
          ]
        ]
      }
    },
    {
      "type": "Feature",
      "properties": {
        "island_id": "rab",
        "name": "Rab",
        "county_id": "primorje-gorski-kotar"
      },
      "geometry": {
        "type": "Polygon",
        "coordinates": [
          [
            [14.74, 44.778],
            [14.74, 44.77],
            [14.743, 44.766],
            [14.754, 44.758],
            [14.741, 44.764],
            [14.725, 44.768],
            [14.71, 44.768],
            [14.699, 44.765],
            [14.658, 44.799],
            [14.67, 44.8],
            [14.683, 44.799],
            [14.695, 44.796],
            [14.706, 44.793],
            [14.706, 44.799],
            [14.702, 44.802],
            [14.701, 44.804],
            [14.701, 44.807],
            [14.699, 44.813],
            [14.716, 44.803],
            [14.72, 44.799],
            [14.727, 44.799],
            [14.714, 44.818],
            [14.706, 44.827],
            [14.692, 44.833],
            [14.69, 44.837],
            [14.686, 44.847],
            [14.707, 44.845],
            [14.727, 44.84],
            [14.724, 44.844],
            [14.72, 44.855],
            [14.739, 44.853],
            [14.753, 44.846],
            [14.756, 44.836],
            [14.74, 44.827],
            [14.74, 44.821],
            [14.748, 44.817],
            [14.787, 44.789],
            [14.812, 44.779],
            [14.822, 44.771],
            [14.851, 44.737],
            [14.859, 44.717],
            [14.85, 44.703],
            [14.821, 44.721],
            [14.773, 44.76],
            [14.74, 44.778]
          ]
        ]
      }
    },
    {
      "type": "Feature",
      "properties": {
        "island_id": "pag",
        "name": "Pag",
        "county_id": "lika-senj"
      },
      "geometry": {
        "type": "Polygon",
        "coordinates": [
          [
            [14.877, 44.56],
            [14.866, 44.566],
            [14.761, 44.659],
            [14.744, 44.68],
            [14.734, 44.703],
            [14.738, 44.703],
            [14.741, 44.702],
            [14.78, 44.67],
            [14.845, 44.601],
            [14.884, 44.58],
            [14.88, 44.609],
            [14.904, 44.61],
            [14.938, 44.594],
            [14.966, 44.573],
            [14.989, 44.547],
            [15.004, 44.536],
            [15.041, 44.527],
            [15.052, 44.516],
            [15.062, 44.501],
            [15.076, 44.484],
            [15.056, 44.486],
            [15.028, 44.503],
            [15.007, 44.505],
            [15.012, 44.515],
            [15.014, 44.519],
            [14.973, 44.536],
            [14.953, 44.541],
            [14.942, 44.547],
            [14.929, 44.552],
            [14.911, 44.552],
            [14.911, 44.545],
            [14.966, 44.524],
            [15.048, 44.439],
            [15.097, 44.415],
            [15.081, 44.425],
            [15.065, 44.438],
            [15.051, 44.455],
            [15.042, 44.477],
            [15.083, 44.462],
            [15.177, 44.391],
            [15.199, 44.381],
            [15.213, 44.369],
            [15.241, 44.351],
            [15.254, 44.34],
            [15.235, 44.336],
            [15.212, 44.346],
            [15.187, 44.36],
            [15.165, 44.367],
            [15.165, 44.361],
            [15.183, 44.358],
            [15.2, 44.35],
            [15.216, 44.338],
            [15.227, 44.326],
            [15.207, 44.326],
            [15.208, 44.321],
            [15.211, 44.317],
            [15.215, 44.315],
            [15.22, 44.313],
            [15.199, 44.317],
            [15.155, 44.331],
            [15.131, 44.333],
            [15.131, 44.326],
            [15.172, 44.305],
            [15.172, 44.299],
            [15.149, 44.303],
            [15.129, 44.312],
            [15.111, 44.325],
            [15.097, 44.34],
            [15.097, 44.346],
            [15.11, 44.346],
            [15.11, 44.354],
            [15.102, 44.357],
            [15.097, 44.361],
            [15.089, 44.374],
            [15.1, 44.374],
            [15.107, 44.375],
            [15.112, 44.38],
            [15.117, 44.387],
            [15.092, 44.399],
            [15.083, 44.402],
            [15.074, 44.4],
            [15.058, 44.394],
            [15.049, 44.395],
            [15.038, 44.403],
            [15.021, 44.43],
            [14.959, 44.467],
            [14.95, 44.468],
            [14.897, 44.491],
            [14.897, 44.497],
            [14.903, 44.498],
            [14.913, 44.503],
            [14.919, 44.505],
            [14.906, 44.521],
            [14.878, 44.551],
            [14.877, 44.56]
          ]
        ]
      }
    },
    {
      "type": "Feature",
      "properties": {
        "island_id": "dugi-otok",
        "name": "Dugi Otok",
        "county_id": "zadar"
      },
      "geometry": {
        "type": "Polygon",
        "coordinates": [
          [
            [15.145, 43.95],
            [15.217, 43.913],
            [15.22, 43.901],
            [15.195, 43.895],
            [15.146, 43.924],
            [15.133, 43.921],
            [15.138, 43.918],
            [15.14, 43.913],
            [15.145, 43.908],
            [15.17, 43.895],
            [15.176, 43.891],
            [15.183, 43.887],
            [15.191, 43.888],
            [15.197, 43.886],
            [15.199, 43.878],
            [15.195, 43.873],
            [15.185, 43.877],
            [15.175, 43.884],
            [15.172, 43.888],
            [15.136, 43.903],
            [15.121, 43.913],
            [15.107, 43.925],
            [15.067, 43.97],
            [15.043, 43.99],
            [15.003, 44.052],
            [14.983, 44.066],
            [14.955, 44.076],
            [14.87, 44.141],
            [14.868, 44.152],
            [14.863, 44.161],
            [14.85, 44.176],
            [14.855, 44.177],
            [14.86, 44.176],
            [14.863, 44.176],
            [14.883, 44.159],
            [14.939, 44.127],
            [14.944, 44.12],
            [14.949, 44.111],
            [14.954, 44.103],
            [14.963, 44.1],
            [14.976, 44.097],
            [14.985, 44.091],
            [14.994, 44.088],
            [15.007, 44.093],
            [15.003, 44.083],
            [15, 44.079],
            [15.014, 44.078],
            [15.023, 44.072],
            [15.027, 44.062],
            [15.028, 44.049],
            [15.032, 44.036],
            [15.041, 44.026],
            [15.088, 43.99],
            [15.099, 43.985],
            [15.114, 43.984],
            [15.117, 43.979],
            [15.145, 43.95]
          ]
        ]
      }
    },
    {
      "type": "Feature",
      "properties": {
        "island_id": "brac",
        "name": "Brač",
        "county_id": "split-dalmatia"
      },
      "geometry": {
        "type": "Polygon",
        "coordinates": [
          [
            [16.501, 43.284],
            [16.422, 43.318],
            [16.406, 43.333],
            [16.414, 43.329],
            [16.419, 43.325],
            [16.426, 43.325],
            [16.427, 43.331],
            [16.43, 43.332],
            [16.434, 43.332],
            [16.44, 43.333],
            [16.434, 43.34],
            [16.435, 43.346],
            [16.442, 43.351],
            [16.453, 43.353],
            [16.44, 43.371],
            [16.426, 43.394],
            [16.447, 43.395],
            [16.453, 43.394],
            [16.494, 43.382],
            [16.688, 43.377],
            [16.81, 43.353],
            [16.81, 43.346],
            [16.796, 43.346],
            [16.807, 43.342],
            [16.816, 43.34],
            [16.824, 43.341],
            [16.83, 43.346],
            [16.839, 43.341],
            [16.858, 43.325],
            [16.869, 43.323],
            [16.878, 43.323],
            [16.885, 43.322],
            [16.892, 43.312],
            [16.88, 43.294],
            [16.872, 43.288],
            [16.864, 43.292],
            [16.846, 43.273],
            [16.813, 43.268],
            [16.628, 43.264],
            [16.564, 43.27],
            [16.501, 43.284]
          ]
        ]
      }
    },
    {
      "type": "Feature",
      "properties": {
        "island_id": "hvar",
        "name": "Hvar",
        "county_id": "split-dalmatia"
      },
      "geometry": {
        "type": "Polygon",
        "coordinates": [
          [
            [16.693, 43.127],
            [16.67, 43.125],
            [16.56, 43.143],
            [16.475, 43.166],
            [16.445, 43.171],
            [16.427, 43.18],
            [16.416, 43.182],
            [16.372, 43.196],
            [16.376, 43.2],
            [16.38, 43.202],
            [16.391, 43.202],
            [16.404, 43.197],
            [16.415, 43.198],
            [16.44, 43.21],
            [16.446, 43.202],
            [16.449, 43.206],
            [16.46, 43.216],
            [16.46, 43.21],
            [16.496, 43.218],
            [16.527, 43.204],
            [16.555, 43.188],
            [16.583, 43.189],
            [16.556, 43.21],
            [16.529, 43.222],
            [16.521, 43.229],
            [16.535, 43.228],
            [16.563, 43.229],
            [16.583, 43.216],
            [16.587, 43.216],
            [16.597, 43.222],
            [16.604, 43.223],
            [16.616, 43.224],
            [16.646, 43.22],
            [16.66, 43.216],
            [16.666, 43.211],
            [16.673, 43.203],
            [16.681, 43.195],
            [16.693, 43.189],
            [16.694, 43.184],
            [16.692, 43.183],
            [16.689, 43.183],
            [16.686, 43.182],
            [16.706, 43.171],
            [16.728, 43.165],
            [16.751, 43.162],
            [16.848, 43.162],
            [16.864, 43.169],
            [16.878, 43.159],
            [16.897, 43.155],
            [16.959, 43.152],
            [17.019, 43.141],
            [17.11, 43.144],
            [17.155, 43.14],
            [17.193, 43.127],
            [16.943, 43.127],
            [16.693, 43.127]
          ]
        ]
      }
    },
    {
      "type": "Feature",
      "properties": {
        "island_id": "vis",
        "name": "Vis",
        "county_id": "split-dalmatia"
      },
      "geometry": {
        "type": "Polygon",
        "coordinates": [
          [
            [16.241, 43.072],
            [16.245, 43.076],
            [16.25, 43.079],
            [16.253, 43.078],
            [16.255, 43.069],
            [16.252, 43.062],
            [16.245, 43.058],
            [16.234, 43.052],
            [16.222, 43.04],
            [16.21, 43.033],
            [16.121, 43.013],
            [16.087, 43.011],
            [16.063, 43.017],
            [16.084, 43.026],
            [16.087, 43.041],
            [16.079, 43.053],
            [16.069, 43.052],
            [16.063, 43.052],
            [16.049, 43.065],
            [16.053, 43.068],
            [16.057, 43.07],
            [16.062, 43.071],
            [16.069, 43.072],
            [16.093, 43.083],
            [16.13, 43.088],
            [16.17, 43.088],
            [16.2, 43.079],
            [16.195, 43.074],
            [16.193, 43.072],
            [16.216, 43.079],
            [16.228, 43.079],
            [16.241, 43.072]
          ]
        ]
      }
    },
    {
      "type": "Feature",
      "properties": {
        "island_id": "korcula",
        "name": "Korčula",
        "county_id": "dubrovnik-neretva"
      },
      "geometry": {
        "type": "Polygon",
        "coordinates": [
          [
            [17.132, 42.97],
            [17.149, 42.953],
            [17.164, 42.941],
            [17.2, 42.922],
            [17.193, 42.914],
            [17.174, 42.922],
            [17.153, 42.921],
            [17.107, 42.914],
            [17.015, 42.929],
            [16.973, 42.927],
            [16.899, 42.906],
            [16.851, 42.901],
            [16.74, 42.917],
            [16.691, 42.928],
            [16.673, 42.927],
            [16.673, 42.922],
            [16.655, 42.926],
            [16.638, 42.935],
            [16.707, 42.962],
            [16.707, 42.97],
            [16.688, 42.974],
            [16.648, 42.978],
            [16.632, 42.983],
            [16.653, 42.992],
            [16.675, 42.993],
            [16.698, 42.99],
            [16.72, 42.99],
            [16.741, 42.981],
            [16.769, 42.972],
            [16.824, 42.962],
            [16.879, 42.962],
            [16.893, 42.965],
            [16.916, 42.975],
            [17.032, 42.983],
            [17.111, 42.964],
            [17.132, 42.97]
          ]
        ]
      }
    },
    {
      "type": "Feature",
      "properties": {
        "island_id": "mljet",
        "name": "Mljet",
        "county_id": "dubrovnik-neretva"
      },
      "geometry": {
        "type": "Polygon",
        "coordinates": [
          [
            [17.659, 42.743],
            [17.679, 42.73],
            [17.73, 42.713],
            [17.749, 42.695],
            [17.386, 42.771],
            [17.374, 42.76],
            [17.354, 42.767],
            [17.334, 42.78],
            [17.324, 42.791],
            [17.342, 42.793],
            [17.374, 42.803],
            [17.392, 42.802],
            [17.387, 42.8],
            [17.382, 42.798],
            [17.372, 42.791],
            [17.383, 42.792],
            [17.393, 42.791],
            [17.403, 42.789],
            [17.412, 42.784],
            [17.42, 42.791],
            [17.437, 42.783],
            [17.486, 42.782],
            [17.524, 42.765],
            [17.574, 42.758],
            [17.598, 42.75],
            [17.594, 42.748],
            [17.594, 42.747],
            [17.591, 42.743],
            [17.648, 42.739],
            [17.659, 42.743]
          ]
        ]
      }
    }
  ]
}
