{"type":"FeatureCollection","features":[{"type":"Feature","properties":{},"geometry":{"type":"Polygon","coordinates":[[[16.3676,46.555],[16.3657,46.5516],[16.3674,46.5492],[16.3653,46.5464],[16.3608,46.5465],[16.3574,46.545],[16.356,46.5453],[16.3567,46.5486],[16.3534,46.5491],[16.3521,46.5486],[16.3521,46.5453],[16.3583,46.543],[16.3588,46.5385],[16.3552,46.5385],[16.355,46.5424],[16.3531,46.5431],[16.3404,46.543],[16.3453,46.5393],[16.3418,46.5293],[16.3353,46.5303],[16.3168,46.526],[16.301,46.5107],[16.2708,46.5154],[16.2708,46.5012],[16.2488,46.5012],[16.2447,46.488],[16.2515,46.4823],[16.2776,46.418],[16.3051,46.3971],[16.3037,46.3801],[16.2653,46.3754],[16.2213,46.3867],[16.1897,46.3801],[16.1403,46.4047],[16.0922,46.3896],[16.0579,46.3953],[16.0538,46.3867],[16.0716,46.3678],[16.0757,46.3422],[16.0359,46.3365],[16.0153,46.3099],[15.9782,46.3137],[15.9645,46.2995],[15.9123,46.2872],[15.8711,46.2767],[15.8629,46.2701],[15.7846,46.2596],[15.7956,46.2378],[15.7901,46.2188],[15.7571,46.2131],[15.753,46.2207],[15.6775,46.2264],[15.6432,46.2102],[15.65,46.1922],[15.6033,46.1646],[15.6116,46.1542],[15.5965,46.1475],[15.6129,46.1275],[15.6061,46.1094],[15.6226,46.1009],[15.6267,46.0856],[15.6432,46.0866],[15.6555,46.0751],[15.6898,46.0637],[15.7242,46.0446],[15.7104,46.0199],[15.705,45.9989],[15.7112,45.941],[15.7115,45.9394],[15.7103,45.9384],[15.7086,45.9392],[15.7078,45.9383],[15.7096,45.9366],[15.7087,45.9363],[15.7098,45.9349],[15.7078,45.9352],[15.7081,45.934],[15.7098,45.933],[15.7087,45.9324],[15.7093,45.931],[15.7081,45.9314],[15.7069,45.9306],[15.7045,45.9309],[15.7061,45.9293],[15.7076,45.9285],[15.7066,45.9286],[15.7062,45.9272],[15.705,45.9276],[15.7039,45.9272],[15.7062,45.9256],[15.7078,45.9253],[15.7059,45.9242],[15.7074,45.9229],[15.7052,45.92],[15.7028,45.9208],[15.6998,45.9193],[15.6997,45.9172],[15.7012,45.9163],[15.6975,45.9146],[15.6943,45.9152],[15.6929,45.9135],[15.6912,45.9137],[15.6902,45.9129],[15.6923,45.9116],[15.6872,45.9088],[15.6851,45.9083],[15.6848,45.9063],[15.6791,45.9046],[15.6803,45.9029],[15.6804,45.9011],[15.682,45.9017],[15.682,45.8996],[15.6808,45.8965],[15.6827,45.8964],[15.6826,45.8932],[15.6845,45.8923],[15.684,45.8904],[15.6797,45.8914],[15.6836,45.8885],[15.684,45.8875],[15.6868,45.8858],[15.6874,45.8876],[15.6886,45.8851],[15.6919,45.8855],[15.6907,45.8834],[15.6886,45.8838],[15.69,45.8801],[15.6877,45.8808],[15.6858,45.88],[15.6874,45.8822],[15.6838,45.8812],[15.6814,45.8827],[15.6808,45.8811],[15.6827,45.879],[15.6846,45.8786],[15.6841,45.8769],[15.6827,45.8781],[15.6826,45.8764],[15.6801,45.8781],[15.6793,45.8755],[15.6826,45.8741],[15.6801,45.8724],[15.6826,45.8699],[15.6789,45.868],[15.6947,45.8628],[15.7111,45.847],[15.7056,45.8451],[15.6974,45.8489],[15.6967,45.8441],[15.6686,45.8432],[15.6445,45.8226],[15.6246,45.8326],[15.5717,45.8522],[15.5573,45.8341],[15.5395,45.8489],[15.5312,45.8264],[15.5065,45.8221],[15.4983,45.8302],[15.4797,45.8269],[15.4784,45.8192],[15.4639,45.8197],[15.4736,45.7972],[15.4173,45.7939],[15.3809,45.7805],[15.339,45.7651],[15.2847,45.7455],[15.2724,45.7352],[15.2586,45.7208],[15.2624,45.7206],[15.2717,45.7067],[15.2834,45.7098],[15.2868,45.7026],[15.2892,45.6918],[15.2923,45.6915],[15.299,45.6859],[15.3024,45.6878],[15.3006,45.6871],[15.2967,45.6899],[15.2966,45.6909],[15.2973,45.6935],[15.2982,45.6919],[15.2974,45.6914],[15.2985,45.6905],[15.3009,45.6925],[15.305,45.6935],[15.3054,45.6948],[15.3038,45.6962],[15.3035,45.6958],[15.3044,45.6952],[15.3032,45.694],[15.3026,45.6955],[15.3015,45.6932],[15.2988,45.692],[15.2979,45.6938],[15.2995,45.6925],[15.2985,45.6942],[15.3,45.6926],[15.2987,45.6944],[15.3002,45.693],[15.3005,45.6935],[15.2992,45.6975],[15.3028,45.6984],[15.3081,45.6981],[15.3102,45.697],[15.3063,45.6889],[15.3204,45.6755],[15.328,45.674],[15.3204,45.6951],[15.339,45.7134],[15.3561,45.7129],[15.3623,45.6971],[15.352,45.6856],[15.3452,45.6702],[15.3726,45.6894],[15.4028,45.6476],[15.3918,45.6361],[15.341,45.6476],[15.3452,45.6361],[15.3026,45.6313],[15.304,45.615],[15.2779,45.6083],[15.2957,45.5785],[15.3094,45.5266],[15.3836,45.4852],[15.3465,45.4515],[15.2724,45.4649],[15.2435,45.4563],[15.2243,45.4235],[15.19,45.4312],[15.157,45.4245],[15.1158,45.4621],[15.0911,45.4659],[15.0856,45.4823],[15.0513,45.4929],[15.0279,45.4861],[15.0032,45.4986],[14.9867,45.4958],[14.9222,45.5275],[14.9057,45.4794],[14.8192,45.4621],[14.8055,45.4967],[14.7643,45.5083],[14.7093,45.5352],[14.7079,45.5256],[14.6873,45.5323],[14.7011,45.5679],[14.6873,45.5843],[14.6571,45.591],[14.6049,45.6246],[14.6077,45.6601],[14.5857,45.664],[14.5734,45.6755],[14.5459,45.6227],[14.5061,45.6083],[14.502,45.5496],[14.4402,45.5092],[14.3756,45.4909],[14.3207,45.4736],[14.3193,45.4813],[14.274,45.4813],[14.2451,45.5035],[14.2259,45.5015],[14.2094,45.4727],[14.1902,45.4755],[14.0721,45.4871],[14.0021,45.5179],[13.9952,45.5083],[13.976,45.514],[13.9691,45.5025],[13.9952,45.4842],[13.9856,45.4505],[13.9101,45.4572],[13.884,45.4274],[13.8043,45.4399],[13.8112,45.4611],[13.7686,45.4649],[13.678,45.4457],[13.6066,45.4645],[13.5537,45.4953],[13.5479,45.497],[13.5279,45.5051],[13.5077,45.5097],[13.4909,45.4994],[13.484,45.4857],[13.5012,45.4724],[13.5049,45.4568],[13.506,45.4416],[13.5077,45.4252],[13.5173,45.404],[13.5283,45.3775],[13.5328,45.3543],[13.5352,45.3343],[13.5451,45.3198],[13.5585,45.3126],[13.5743,45.3053],[13.564,45.2993],[13.5767,45.2853],[13.5726,45.2773],[13.565,45.2599],[13.5794,45.2514],[13.587,45.2406],[13.5794,45.2304],[13.5781,45.2171],[13.5784,45.2036],[13.5647,45.2024],[13.5647,45.1929],[13.5781,45.1842],[13.5753,45.1731],[13.5846,45.1552],[13.577,45.1455],[13.5853,45.1356],[13.5997,45.1222],[13.611,45.0975],[13.6196,45.0864],[13.6176,45.074],[13.6138,45.0655],[13.611,45.05],[13.61,45.0415],[13.6285,45.0425],[13.6364,45.0524],[13.6471,45.0607],[13.6649,45.0517],[13.6776,45.0422],[13.6838,45.034],[13.6608,45.0379],[13.6694,45.0311],[13.6869,45.0233],[13.7024,45.0129],[13.7144,44.9998],[13.7319,44.983],[13.7508,44.9823],[13.7679,44.959],[13.7899,44.9356],[13.7992,44.9198],[13.8005,44.9057],[13.781,44.9004],[13.7851,44.8933],[13.8016,44.8821],[13.7865,44.8821],[13.7851,44.8734],[13.7947,44.8568],[13.8194,44.8427],[13.829,44.8189],[13.862,44.8023],[13.8936,44.8018],[13.8929,44.7701],[13.8991,44.7638],[13.9279,44.7623],[13.9355,44.774],[13.9458,44.7628],[13.9533,44.7731],[13.9451,44.7818],[13.9547,44.7867],[13.9719,44.7994],[13.9801,44.7872],[14.0062,44.7955],[14.0096,44.8047],[14,44.8232],[13.9925,44.8432],[14.0096,44.8602],[14.0034,44.8763],[14.0234,44.895],[14.0422,44.9162],[14.0608,44.9415],[14.08,44.9441],[14.0896,44.958],[14.1102,44.9655],[14.1109,44.9616],[14.1294,44.9595],[14.1367,44.9524],[14.1504,44.9544],[14.1648,44.9655],[14.1779,44.9864],[14.1717,45.0085],[14.1672,45.0388],[14.1583,45.0706],[14.1665,45.0684],[14.1981,45.0956],[14.2081,45.113],[14.2211,45.1293],[14.2383,45.1658],[14.2496,45.1799],[14.2486,45.2026],[14.2661,45.2377],[14.2726,45.2609],[14.2894,45.3017],[14.3039,45.3222],[14.3279,45.3495],[14.3495,45.3435],[14.3749,45.3348],[14.4072,45.328],[14.4453,45.3169],[14.4645,45.3135],[14.4834,45.3002],[14.5081,45.2865],[14.5325,45.278],[14.5552,45.2737],[14.5603,45.2651],[14.5711,45.2548],[14.5708,45.2518],[14.5713,45.2488],[14.5749,45.2476],[14.5807,45.2466],[14.5898,45.2443],[14.5981,45.2356],[14.6062,45.2294],[14.6056,45.2204],[14.6118,45.2154],[14.6407,45.1951],[14.6846,45.1636],[14.7279,45.1385],[14.7917,45.1128],[14.8329,45.1021],[14.848,45.0638],[14.8714,45.0337],[14.8789,44.9935],[14.9098,44.9735],[14.9153,44.941],[14.8865,44.8865],[14.8672,44.8403],[14.8762,44.7604],[14.8748,44.7243],[14.892,44.6843],[14.9332,44.6306],[14.9744,44.5729],[15.019,44.5528],[15.0849,44.5112],[15.1028,44.4882],[15.1797,44.4328],[15.2222,44.4034],[15.2765,44.3582],[15.3534,44.3268],[15.3987,44.3121],[15.4413,44.2811],[15.4749,44.2698],[15.4976,44.2609],[15.5299,44.2614],[15.536,44.2486],[15.4619,44.2644],[15.4193,44.2634],[15.363,44.2885],[15.3452,44.3022],[15.3038,44.3224],[15.2818,44.3332],[15.267,44.337],[15.2628,44.3289],[15.2578,44.3245],[15.2581,44.3183],[15.2684,44.3038],[15.2973,44.2849],[15.2768,44.2834],[15.2789,44.2715],[15.2937,44.2511],[15.2835,44.2506],[15.2301,44.2849],[15.2066,44.2977],[15.1881,44.3058],[15.1812,44.3031],[15.1883,44.2951],[15.1879,44.2885],[15.1855,44.2826],[15.208,44.258],[15.195,44.2506],[15.1783,44.2534],[15.1443,44.2818],[15.1258,44.2794],[15.1204,44.2704],[15.1,44.2668],[15.1151,44.2462],[15.155,44.224],[15.1323,44.1955],[15.1519,44.179],[15.1965,44.1504],[15.1924,44.1371],[15.2092,44.1221],[15.226,44.1007],[15.2652,44.0812],[15.2768,44.0627],[15.2923,44.0456],[15.3074,44.0363],[15.3287,44.0323],[15.3575,44.0066],[15.3723,43.9911],[15.3891,43.9822],[15.3963,43.9726],[15.4052,43.9637],[15.4269,43.955],[15.4334,43.9431],[15.4399,43.9333],[15.4468,43.9226],[15.4742,43.9122],[15.5099,43.8934],[15.545,43.8692],[15.5237,43.8731],[15.5216,43.8632],[15.547,43.8439],[15.5553,43.8197],[15.593,43.7879],[15.5985,43.7691],[15.6329,43.7557],[15.6445,43.7602],[15.6816,43.7498],[15.6981,43.7582],[15.7173,43.7478],[15.7427,43.7428],[15.742,43.7299],[15.7571,43.7116],[15.7798,43.7011],[15.7853,43.7126],[15.8011,43.7111],[15.8176,43.7121],[15.8265,43.724],[15.8375,43.715],[15.8066,43.7041],[15.8169,43.6927],[15.845,43.6738],[15.8595,43.6564],[15.8952,43.6425],[15.889,43.6311],[15.9096,43.6207],[15.9013,43.6053],[15.9041,43.5859],[15.9116,43.5714],[15.9171,43.5451],[15.9377,43.5301],[15.9226,43.5182],[15.9398,43.5087],[15.9721,43.4868],[15.9975,43.4798],[16.0036,43.4709],[16.0318,43.4664],[16.0606,43.4639],[16.073,43.4724],[16.119,43.4674],[16.1485,43.4773],[16.1678,43.4689],[16.1945,43.4694],[16.1959,43.4778],[16.1849,43.4933],[16.1911,43.5032],[16.1987,43.4958],[16.2096,43.4699],[16.233,43.4704],[16.2756,43.4823],[16.2955,43.4783],[16.3731,43.4783],[16.4012,43.4848],[16.3889,43.4938],[16.3648,43.4993],[16.3559,43.5062],[16.3133,43.5187],[16.2811,43.5187],[16.3147,43.5296],[16.3422,43.5436],[16.3861,43.5416],[16.4349,43.5356],[16.4081,43.5237],[16.3765,43.5117],[16.3861,43.5003],[16.404,43.4963],[16.4548,43.4953],[16.5282,43.4918],[16.5722,43.4639],[16.6251,43.439],[16.647,43.431],[16.6862,43.434],[16.6951,43.424],[16.739,43.406],[16.8764,43.3916],[16.9052,43.3766],[16.9622,43.3332],[17.011,43.2892],[17.0309,43.2717],[17.0535,43.2392],[17.0995,43.2142],[17.1243,43.1927],[17.1689,43.1696],[17.263,43.1401],[17.2918,43.118],[17.3268,43.1065],[17.3714,43.0563],[17.4078,43.0277],[17.447,43.0142],[17.458,42.9876],[17.5194,42.9454],[17.5321,42.9273],[17.5198,42.928],[17.5119,42.9225],[17.5002,42.9318],[17.4926,42.9328],[17.5002,42.9142],[17.4817,42.926],[17.4635,42.9268],[17.4559,42.9378],[17.4518,42.9471],[17.4614,42.9562],[17.4463,42.9554],[17.4247,42.9604],[17.4044,42.9677],[17.3725,42.9813],[17.3272,42.9991],[17.266,43.0157],[17.1953,43.0262],[17.1469,43.0297],[17.0793,43.0257],[17.0271,43.0493],[16.9948,43.0521],[16.9969,43.0463],[17.0058,43.0343],[17.0127,43.022],[17.0113,43.0124],[17.0003,43.0149],[17.0037,43.0034],[17.0322,43.0001],[17.0583,42.9853],[17.0786,42.981],[17.139,42.9705],[17.1826,42.9702],[17.2036,42.975],[17.2224,42.9705],[17.2482,42.9499],[17.3103,42.9356],[17.3601,42.9094],[17.3948,42.9084],[17.436,42.8918],[17.4188,42.8724],[17.4961,42.8488],[17.5524,42.8362],[17.6981,42.7953],[17.729,42.7856],[17.7421,42.7928],[17.7464,42.7823],[17.7409,42.7737],[17.7513,42.763],[17.7714,42.7555],[17.7826,42.7566],[17.7843,42.7633],[17.7836,42.7701],[17.7752,42.7727],[17.7786,42.7778],[17.7903,42.7899],[17.8239,42.7954],[17.8336,42.7914],[17.8782,42.7551],[17.9568,42.7152],[17.9884,42.6976],[18.0354,42.6824],[18.0461,42.6716],[18.045,42.6607],[18.0402,42.6491],[18.0646,42.6466],[18.1007,42.6367],[18.1134,42.6196],[18.1292,42.6201],[18.1364,42.6261],[18.1656,42.616],[18.1875,42.6148],[18.2064,42.6122],[18.2201,42.5958],[18.2037,42.587],[18.2071,42.5743],[18.2311,42.5536],[18.2867,42.5192],[18.3945,42.4711],[18.4069,42.4584],[18.4289,42.4371],[18.4474,42.4468],[18.4941,42.3996],[18.5367,42.3859],[18.5401,42.3946],[18.5308,42.4048],[18.5274,42.417],[18.4982,42.4344],[18.4772,42.4592],[18.4373,42.4829],[18.4472,42.5085],[18.4387,42.5185],[18.4421,42.5392],[18.4352,42.5607],[18.4308,42.5658],[18.4192,42.5749],[18.4025,42.5831],[18.3957,42.587],[18.3887,42.5846],[18.3757,42.6019],[18.3667,42.6074],[18.3667,42.611],[18.3554,42.6163],[18.3406,42.6165],[18.3142,42.615],[18.2909,42.6145],[18.2806,42.6168],[18.2782,42.6135],[18.2768,42.6087],[18.2703,42.6105],[18.2624,42.6059],[18.2493,42.6039],[18.2407,42.6117],[18.227,42.6168],[18.2037,42.641],[18.1913,42.6579],[18.1831,42.6564],[18.1783,42.6602],[18.1758,42.6577],[18.1642,42.6592],[18.1525,42.6627],[18.1453,42.6723],[18.1432,42.6781],[18.1405,42.6799],[18.1158,42.685],[18.1072,42.6885],[18.1048,42.6938],[18.1058,42.7004],[18.0986,42.7117],[18.0893,42.7152],[18.0866,42.7157],[18.0598,42.7352],[18.0502,42.7412],[18.0461,42.7457],[18.0204,42.7507],[18.008,42.756],[18.0005,42.7653],[18.0001,42.7753],[17.9769,42.7797],[17.958,42.7947],[17.9496,42.7984],[17.9131,42.8091],[17.9029,42.8067],[17.8928,42.8127],[17.8954,42.8203],[17.9024,42.8305],[17.8889,42.8353],[17.8791,42.8421],[17.8691,42.8494],[17.8601,42.8745],[17.8629,42.883],[17.8567,42.8946],[17.8261,42.912],[17.8111,42.9147],[17.805,42.9047],[17.7938,42.8912],[17.7888,42.8919],[17.7645,42.9084],[17.7263,42.9179],[17.7044,42.9205],[17.6957,42.924],[17.6809,42.9193],[17.6721,42.9085],[17.6448,42.8823],[17.6255,42.8951],[17.6094,42.9016],[17.5846,42.9109],[17.5404,42.9285],[17.5513,42.9378],[17.5589,42.9366],[17.5671,42.9378],[17.5771,42.9353],[17.5809,42.9391],[17.621,42.9407],[17.667,42.9625],[17.7141,42.9731],[17.6701,43.0403],[17.6756,43.0543],[17.6622,43.0521],[17.6406,43.0895],[17.5723,43.122],[17.5627,43.125],[17.5562,43.1306],[17.5417,43.1338],[17.529,43.1413],[17.4744,43.1616],[17.4597,43.1711],[17.4542,43.1741],[17.4477,43.1784],[17.4391,43.1796],[17.4312,43.1786],[17.4281,43.1844],[17.4329,43.1927],[17.4394,43.2002],[17.4271,43.2184],[17.3975,43.239],[17.3776,43.2492],[17.3423,43.2597],[17.3316,43.2797],[17.3117,43.3062],[17.2853,43.3307],[17.2664,43.3863],[17.2568,43.4028],[17.2757,43.4243],[17.2942,43.4422],[17.2839,43.4651],[17.2709,43.4761],[17.2671,43.4793],[17.2496,43.4885],[17.2248,43.4973],[17.1988,43.498],[17.1881,43.4973],[17.1806,43.492],[17.1758,43.4925],[17.1716,43.4935],[17.1562,43.4925],[17.1493,43.495],[17.1414,43.5065],[17.1301,43.5105],[17.1246,43.5177],[17.1037,43.5286],[17.0903,43.5364],[17.0776,43.5436],[17.0659,43.552],[17.0487,43.555],[17.0302,43.5635],[17.0147,43.5729],[16.991,43.5928],[16.9601,43.6232],[16.9341,43.6356],[16.9299,43.652],[16.8929,43.6932],[16.8764,43.6952],[16.8654,43.7081],[16.864,43.7126],[16.8393,43.721],[16.8304,43.7265],[16.8256,43.7294],[16.8111,43.7552],[16.7981,43.7637],[16.7693,43.7696],[16.75,43.7711],[16.7239,43.7984],[16.7233,43.8038],[16.7178,43.8088],[16.7178,43.8355],[16.7143,43.8479],[16.7013,43.8613],[16.6869,43.8647],[16.6683,43.8776],[16.6615,43.8801],[16.6436,43.8885],[16.6154,43.9122],[16.6072,43.9206],[16.6045,43.9261],[16.5962,43.9355],[16.5907,43.938],[16.5887,43.9419],[16.5536,43.9523],[16.5468,43.9617],[16.5495,43.9686],[16.5447,43.974],[16.5324,43.9913],[16.5317,44.0012],[16.5083,44.0244],[16.485,44.0284],[16.4671,44.0303],[16.4507,44.0289],[16.4362,44.0303],[16.4397,44.0447],[16.4362,44.0555],[16.4424,44.0664],[16.4273,44.0827],[16.4101,44.0807],[16.3971,44.0787],[16.3854,44.0836],[16.3792,44.0817],[16.371,44.0817],[16.3621,44.095],[16.3628,44.0979],[16.3497,44.1068],[16.3346,44.1117],[16.3236,44.1142],[16.3161,44.1152],[16.3092,44.127],[16.3092,44.1448],[16.2694,44.1753],[16.2227,44.2147],[16.2117,44.2344],[16.1925,44.2737],[16.1911,44.3111],[16.2144,44.3445],[16.2048,44.3572],[16.1842,44.3661],[16.1609,44.3749],[16.132,44.3798],[16.1197,44.3985],[16.1472,44.3945],[16.1732,44.4044],[16.1485,44.422],[16.1362,44.4573],[16.1362,44.4887],[16.095,44.5347],[16.0565,44.5376],[16.0222,44.5641],[16.0071,44.5826],[16.0483,44.5905],[16.0483,44.609],[16.0579,44.6218],[16.0277,44.654],[16.0002,44.6608],[15.9549,44.6931],[15.9467,44.7126],[15.9343,44.7077],[15.9,44.7438],[15.8835,44.735],[15.8725,44.7282],[15.8574,44.7341],[15.834,44.7145],[15.7956,44.7419],[15.7269,44.8296],[15.7942,44.8452],[15.7585,44.8705],[15.7407,44.9366],[15.7516,44.9687],[15.7791,44.9706],[15.7777,45.0027],[15.7434,45.0609],[15.7709,45.0793],[15.7805,45.1201],[15.7681,45.1675],[15.786,45.1917],[15.8203,45.2111],[15.8272,45.2111],[15.8313,45.2198],[15.8533,45.2207],[15.8862,45.2178],[15.8917,45.2256],[15.9233,45.2256],[15.9302,45.212],[15.9727,45.2207],[15.9796,45.2275],[16.0153,45.212],[16.0291,45.1985],[16.0208,45.1801],[16.0497,45.1762],[16.0963,45.123],[16.0922,45.1113],[16.1101,45.0968],[16.1623,45.0832],[16.1746,45.0726],[16.2048,45.0337],[16.2378,45.025],[16.2543,45.0114],[16.2817,45.0095],[16.3078,44.9978],[16.3545,45.0056],[16.36,45.0405],[16.3792,45.0561],[16.3889,45.0861],[16.3998,45.0997],[16.3902,45.1142],[16.4699,45.1433],[16.4822,45.1762],[16.4864,45.1995],[16.5138,45.2207],[16.5392,45.2246],[16.5626,45.2207],[16.59,45.227],[16.6003,45.2299],[16.6223,45.2198],[16.634,45.2116],[16.7006,45.1966],[16.7136,45.2038],[16.7308,45.2067],[16.7576,45.2014],[16.7816,45.1927],[16.8228,45.1849],[16.8414,45.1883],[16.8462,45.198],[16.8345,45.2207],[16.8475,45.2207],[16.8551,45.2062],[16.8654,45.2203],[16.8771,45.2212],[16.8668,45.227],[16.8764,45.2338],[16.8791,45.2261],[16.8826,45.2304],[16.8819,45.2367],[16.8839,45.244],[16.8716,45.2411],[16.8771,45.2464],[16.8894,45.2478],[16.8915,45.2531],[16.8839,45.2551],[16.8853,45.2585],[16.8915,45.2585],[16.897,45.2507],[16.9066,45.2512],[16.9155,45.2589],[16.9162,45.2681],[16.9231,45.2744],[16.9334,45.2759],[16.9416,45.2628],[16.9526,45.256],[16.9444,45.2473],[16.9389,45.244],[16.9382,45.229],[16.9512,45.2304],[16.9698,45.229],[16.9766,45.2338],[16.9718,45.2415],[16.965,45.2459],[16.9718,45.2512],[16.9801,45.244],[16.9849,45.2323],[16.9876,45.2261],[17.002,45.2222],[17.0068,45.228],[17.0034,45.2362],[17.0096,45.2377],[17.024,45.2353],[17.0144,45.2232],[17.0103,45.2164],[17.0213,45.214],[17.0309,45.2203],[17.0384,45.2241],[17.0439,45.2082],[17.0611,45.1995],[17.0734,45.1878],[17.1098,45.1762],[17.1819,45.1467],[17.2039,45.1481],[17.2293,45.1462],[17.2506,45.1486],[17.2705,45.1907],[17.2884,45.1762],[17.3131,45.1743],[17.3117,45.1675],[17.3309,45.1627],[17.3405,45.1462],[17.4216,45.1394],[17.4463,45.1588],[17.4614,45.154],[17.4614,45.1297],[17.4971,45.1307],[17.4847,45.1113],[17.5081,45.1123],[17.5287,45.1084],[17.5438,45.1259],[17.5589,45.121],[17.563,45.1055],[17.5905,45.1123],[17.6193,45.1104],[17.6688,45.1297],[17.7924,45.0784],[17.8432,45.0473],[17.8912,45.0512],[17.942,45.0822],[17.9352,45.1075],[17.9791,45.1142],[18.0066,45.1452],[18.0313,45.1336],[18.0643,45.1414],[18.0862,45.1278],[18.078,45.1045],[18.1357,45.0813],[18.2263,45.0813],[18.2153,45.1142],[18.262,45.1356],[18.2785,45.122],[18.3115,45.1123],[18.3472,45.1045],[18.4241,45.1123],[18.4598,45.0735],[18.5065,45.0541],[18.5339,45.0561],[18.5518,45.0784],[18.5381,45.09],[18.5518,45.0958],[18.5683,45.0735],[18.582,45.0784],[18.571,45.091],[18.5834,45.0939],[18.5999,45.0842],[18.6232,45.0842],[18.6273,45.0949],[18.6342,45.0861],[18.6108,45.0696],[18.6191,45.0619],[18.6411,45.0619],[18.6575,45.0551],[18.6603,45.0745],[18.6575,45.0822],[18.6713,45.0919],[18.6836,45.0832],[18.6713,45.0648],[18.6919,45.0464],[18.718,45.0328],[18.7372,45.0143],[18.7303,44.9978],[18.7633,44.9998],[18.799,44.9901],[18.788,44.9629],[18.8113,44.9415],[18.7825,44.9366],[18.7633,44.9434],[18.7523,44.9347],[18.7688,44.923],[18.7688,44.9113],[18.7715,44.8967],[18.8278,44.8734],[18.8525,44.852],[18.9322,44.85],[18.9811,44.8494],[19.0224,44.856],[18.9889,44.9054],[19.0045,44.9184],[19.0331,44.9228],[19.068,44.9011],[19.0848,44.9111],[19.0942,44.9298],[19.1492,44.9531],[19.1464,44.9784],[19.053,44.9774],[19.0984,45.0104],[19.1025,45.0832],[19.0846,45.1162],[19.0887,45.1414],[19.1327,45.1317],[19.1945,45.1743],[19.1753,45.1985],[19.2316,45.184],[19.2947,45.1724],[19.2728,45.2072],[19.3167,45.2053],[19.3483,45.1782],[19.4334,45.1772],[19.4444,45.1937],[19.417,45.2372],[19.3318,45.2333],[19.1862,45.2643],[19.1039,45.301],[19.0887,45.3367],[19.0242,45.3406],[18.9926,45.3589],[18.9803,45.3927],[19.0269,45.4206],[18.9912,45.4457],[19.005,45.4929],[19.0421,45.4871],[19.0984,45.4958],[19.0874,45.5256],[19.0187,45.5535],[18.9555,45.5352],[18.8841,45.565],[18.9129,45.5966],[18.9043,45.6141],[18.9308,45.6288],[18.9402,45.6443],[18.9666,45.6607],[18.9659,45.6728],[18.9303,45.6878],[18.9089,45.7074],[18.9459,45.7039],[18.9548,45.6956],[18.971,45.6948],[18.9777,45.7102],[18.972,45.722],[18.9349,45.7148],[18.9055,45.7126],[18.909,45.7237],[18.9233,45.7294],[18.9548,45.7227],[18.9773,45.7324],[18.9727,45.7623],[18.9629,45.7688],[18.9344,45.754],[18.9114,45.744],[18.8604,45.7622],[18.8505,45.7716],[18.874,45.7848],[18.8929,45.7804],[18.9214,45.7839],[18.9215,45.8177],[18.8994,45.8266],[18.8868,45.8256],[18.8793,45.8077],[18.8478,45.8083],[18.8566,45.8284],[18.8561,45.8618],[18.8898,45.8587],[18.9025,45.8651],[18.8998,45.8748],[18.8781,45.8835],[18.8711,45.8952],[18.8753,45.9009],[18.9016,45.9091],[18.9054,45.9178],[18.8902,45.9216],[18.8751,45.9158],[18.8642,45.9204],[18.867,45.9112],[18.8289,45.9044],[18.8216,45.9142],[18.8058,45.8814],[18.7042,45.9149],[18.6617,45.9187],[18.663,45.9034],[18.6424,45.8919],[18.6548,45.8738],[18.6342,45.8738],[18.6218,45.8432],[18.5422,45.7886],[18.4914,45.7915],[18.4557,45.7666],[18.4474,45.7388],[18.3691,45.7675],[18.3334,45.7512],[18.2552,45.7599],[18.2359,45.7781],[18.1302,45.7924],[18.0917,45.7714],[17.9984,45.7934],[17.9105,45.7972],[17.861,45.7637],[17.8308,45.8049],[17.7498,45.8259],[17.6605,45.8369],[17.6303,45.8948],[17.5651,45.9378],[17.4641,45.9454],[17.4339,45.9464],[17.4257,45.9263],[17.4147,45.9402],[17.3962,45.9335],[17.3811,45.9469],[17.3502,45.943],[17.3412,45.9602],[17.3577,45.9545],[17.3907,45.964],[17.3639,45.9655],[17.3769,45.9702],[17.366,45.9917],[17.3563,45.9741],[17.3344,45.997],[17.3351,45.9688],[17.3151,45.9669],[17.3179,45.9893],[17.2959,45.9879],[17.3014,46.0013],[17.2602,46.0117],[17.2945,46.0289],[17.2602,46.0318],[17.2588,46.0446],[17.2684,46.0561],[17.2327,46.058],[17.2307,46.0651],[17.2451,46.0613],[17.2547,46.0666],[17.2437,46.0651],[17.2375,46.0732],[17.2293,46.0813],[17.2032,46.0747],[17.2039,46.0818],[17.2211,46.0889],[17.2348,46.1009],[17.2115,46.0994],[17.2149,46.1132],[17.2115,46.108],[17.2025,46.1108],[17.1915,46.1085],[17.1778,46.1094],[17.1819,46.118],[17.1771,46.1294],[17.184,46.1323],[17.1799,46.1408],[17.1785,46.1503],[17.1579,46.1575],[17.1572,46.1689],[17.14,46.1717],[17.1284,46.1689],[17.1208,46.1779],[17.1146,46.177],[17.103,46.1846],[17.094,46.1874],[17.0851,46.1879],[17.0714,46.1927],[17.0659,46.2007],[17.0542,46.2022],[17.0041,46.2221],[16.9897,46.2226],[16.9753,46.2259],[16.9732,46.2416],[16.956,46.2397],[16.9244,46.2606],[16.9183,46.2615],[16.9066,46.2729],[16.8867,46.2805],[16.8791,46.3052],[16.8764,46.3218],[16.8812,46.3365],[16.8716,46.3389],[16.875,46.3431],[16.862,46.3483],[16.8654,46.3531],[16.8551,46.3536],[16.8517,46.3611],[16.8386,46.3649],[16.8331,46.3725],[16.8276,46.3673],[16.8214,46.372],[16.818,46.3716],[16.807,46.3777],[16.8029,46.3839],[16.7885,46.3867],[16.7754,46.3796],[16.7706,46.3863],[16.7603,46.3796],[16.7528,46.3891],[16.7411,46.3872],[16.7384,46.3981],[16.7287,46.4024],[16.7184,46.3915],[16.7061,46.4028],[16.6718,46.4487],[16.6587,46.4473],[16.6669,46.4554],[16.6594,46.4596],[16.6367,46.4658],[16.6299,46.4625],[16.6252,46.4682],[16.619,46.4654],[16.6122,46.4698],[16.5966,46.472],[16.5952,46.462],[16.5888,46.4627],[16.5893,46.4725],[16.5761,46.4717],[16.5646,46.4743],[16.5612,46.4776],[16.5409,46.4764],[16.5305,46.4677],[16.5243,46.4688],[16.532,46.4787],[16.5216,46.4793],[16.5112,46.4798],[16.5165,46.4846],[16.5173,46.4918],[16.509,46.4922],[16.508,46.4946],[16.4857,46.5023],[16.4877,46.5078],[16.4806,46.5097],[16.4804,46.5121],[16.4773,46.5126],[16.4755,46.5119],[16.4726,46.511],[16.4702,46.5112],[16.4706,46.512],[16.4714,46.514],[16.4714,46.5165],[16.4698,46.5172],[16.4676,46.5177],[16.4661,46.5169],[16.4669,46.5126],[16.4616,46.5148],[16.4622,46.5161],[16.4656,46.5197],[16.4646,46.5215],[16.4617,46.5213],[16.4616,46.52],[16.4592,46.5164],[16.457,46.5174],[16.4511,46.5178],[16.4475,46.5163],[16.441,46.5149],[16.438,46.5174],[16.438,46.5228],[16.4411,46.5252],[16.437,46.5289],[16.4347,46.527],[16.4316,46.5274],[16.4308,46.5313],[16.4281,46.533],[16.4249,46.5326],[16.4243,46.5306],[16.4251,46.5277],[16.4179,46.5289],[16.4156,46.5314],[16.4095,46.534],[16.4077,46.5337],[16.4093,46.5331],[16.4102,46.5313],[16.4122,46.5302],[16.4098,46.5264],[16.4069,46.5266],[16.406,46.5295],[16.4018,46.5322],[16.4035,46.5347],[16.4041,46.5367],[16.4038,46.5387],[16.4008,46.5394],[16.3967,46.5374],[16.3976,46.5358],[16.3907,46.5358],[16.3871,46.5361],[16.3865,46.5402],[16.3852,46.5417],[16.3833,46.5425],[16.3808,46.5421],[16.3805,46.5407],[16.3791,46.5409],[16.3734,46.5419],[16.3694,46.5449],[16.3695,46.547],[16.3735,46.5473],[16.3801,46.5476],[16.382,46.5502],[16.3811,46.5523],[16.3765,46.5523],[16.3709,46.5542],[16.3676,46.555]]]}},{"type":"Feature","properties":{},"geometry":{"type":"Polygon","coordinates":[[[18.2006,42.598],[18.1987,42.5961],[18.2023,42.5932],[18.2061,42.5944],[18.2006,42.598]]]}},{"type":"Feature","properties":{},"geometry":{"type":"Polygon","coordinates":[[[18.1738,42.5896],[18.1724,42.5884],[18.1746,42.5843],[18.1865,42.5827],[18.1911,42.5734],[18.1975,42.5703],[18.2045,42.5693],[18.1978,42.5755],[18.1925,42.5808],[18.1851,42.5849],[18.1738,42.5896]]]}},{"type":"Feature","properties":{},"geometry":{"type":"Polygon","coordinates":[[[17.8356,42.7626],[17.8222,42.7614],[17.8363,42.7432],[17.7979,42.7624],[17.7913,42.7596],[17.7824,42.7528],[17.7968,42.742],[17.8095,42.7377],[17.816,42.7336],[17.8322,42.7258],[17.8439,42.7271],[17.85,42.7251],[17.9012,42.6981],[17.9118,42.6966],[17.919,42.7059],[17.9263,42.7016],[17.939,42.7021],[17.9338,42.69],[17.9197,42.6928],[17.9235,42.6862],[17.9342,42.6739],[17.9482,42.6701],[17.9602,42.6759],[17.9695,42.6749],[17.9815,42.6781],[17.9898,42.6711],[18.008,42.6686],[18.0169,42.6582],[18.0303,42.6658],[18.0238,42.6771],[18.0018,42.686],[17.9949,42.6809],[17.9784,42.6817],[17.9626,42.6898],[17.9386,42.7115],[17.9242,42.718],[17.9129,42.7266],[17.8596,42.7561],[17.8356,42.7626]]]}},{"type":"Feature","properties":{},"geometry":{"type":"Polygon","coordinates":[[[17.3584,42.813],[17.3172,42.7974],[17.3096,42.7858],[17.3577,42.7571],[17.4291,42.744],[17.4538,42.7425],[17.5623,42.7173],[17.6344,42.7142],[17.6811,42.6895],[17.7587,42.6829],[17.7608,42.7057],[17.6605,42.742],[17.5362,42.7687],[17.3584,42.813]]]}},{"type":"Feature","properties":{},"geometry":{"type":"Polygon","coordinates":[[[16.7713,42.7889],[16.7713,42.7697],[16.7912,42.743],[16.8311,42.7208],[16.8647,42.7218],[16.9045,42.7228],[16.9395,42.747],[17.002,42.7606],[17.0048,42.7722],[16.9965,42.7883],[16.8929,42.7823],[16.7713,42.7889]]]}},{"type":"Feature","properties":{},"geometry":{"type":"Polygon","coordinates":[[[17.1503,42.7697],[17.0625,42.7636],[17.0631,42.7551],[17.1524,42.7606],[17.1503,42.7697]]]}},{"type":"Feature","properties":{},"geometry":{"type":"Polygon","coordinates":[[[16.7198,42.7689],[16.7092,42.7591],[16.7051,42.7465],[16.7524,42.7561],[16.7198,42.7689]]]}},{"type":"Feature","properties":{},"geometry":{"type":"Polygon","coordinates":[[[16.5064,42.7751],[16.4985,42.7694],[16.4874,42.7547],[16.4845,42.7479],[16.497,42.7485],[16.4987,42.7533],[16.5102,42.7594],[16.5222,42.757],[16.5331,42.7591],[16.5389,42.7648],[16.5248,42.7736],[16.5064,42.7751]]]}},{"type":"Feature","properties":{},"geometry":{"type":"Polygon","coordinates":[[[16.6759,42.9994],[16.6034,42.9893],[16.6024,42.9881],[16.6031,42.9803],[16.623,42.9783],[16.6405,42.9728],[16.6566,42.9667],[16.669,42.9665],[16.6721,42.9584],[16.6563,42.9579],[16.6532,42.9491],[16.6336,42.9391],[16.6312,42.9308],[16.6354,42.92],[16.6666,42.9107],[16.6937,42.8963],[16.7044,42.8946],[16.7078,42.9046],[16.6814,42.9192],[16.713,42.9114],[16.727,42.9051],[16.7603,42.8968],[16.7892,42.8895],[16.8214,42.8898],[16.8256,42.8971],[16.8417,42.8989],[16.8578,42.8921],[16.8777,42.8918],[16.91,42.8976],[16.9447,42.9074],[16.9691,42.9235],[17.0264,42.9202],[17.1064,42.9041],[17.1857,42.9094],[17.2066,42.9139],[17.2053,42.9222],[17.1929,42.9268],[17.1915,42.9331],[17.207,42.9328],[17.2139,42.9411],[17.1885,42.9446],[17.1792,42.9391],[17.1754,42.9494],[17.1812,42.962],[17.1847,42.9516],[17.2104,42.9547],[17.218,42.962],[17.2115,42.9677],[17.1857,42.9652],[17.1452,42.9662],[17.1146,42.9687],[17.0556,42.976],[17.0583,42.9815],[17.0449,42.9846],[16.9749,42.9798],[16.9011,42.976],[16.8712,42.9662],[16.8166,42.969],[16.7366,42.9918],[16.6759,42.9994]]]}},{"type":"Feature","properties":{},"geometry":{"type":"Polygon","coordinates":[[[16.6925,43.1009],[16.6927,43.1002],[16.6838,43.0996],[16.6714,43.0977],[16.6627,43.0938],[16.6568,43.0906],[16.6611,43.0834],[16.6819,43.0816],[16.7087,43.0778],[16.7296,43.0812],[16.7442,43.0844],[16.7433,43.0916],[16.7327,43.0971],[16.6925,43.1009]]]}},{"type":"Feature","properties":{},"geometry":{"type":"Polygon","coordinates":[[[16.5593,43.239],[16.5428,43.2379],[16.5401,43.2289],[16.5358,43.2341],[16.5234,43.2329],[16.515,43.2247],[16.5349,43.2102],[16.5497,43.2103],[16.5593,43.1983],[16.577,43.1864],[16.5641,43.1835],[16.5193,43.2092],[16.4994,43.2157],[16.4575,43.2142],[16.4149,43.2057],[16.3648,43.2037],[16.3593,43.1927],[16.393,43.1796],[16.3916,43.1721],[16.3552,43.1791],[16.312,43.1816],[16.3017,43.1706],[16.3147,43.1636],[16.3422,43.1541],[16.3779,43.1416],[16.3937,43.1466],[16.4342,43.1471],[16.4864,43.1551],[16.5207,43.1391],[16.5509,43.1346],[16.5976,43.1301],[16.6573,43.116],[16.75,43.1245],[16.8819,43.11],[16.9835,43.1105],[17.1778,43.115],[17.2039,43.1245],[17.1964,43.1336],[17.1558,43.1426],[17.1243,43.1421],[17.0693,43.1421],[16.9849,43.1546],[16.9004,43.1611],[16.8729,43.1656],[16.8249,43.1666],[16.7548,43.1696],[16.7287,43.1666],[16.7116,43.1801],[16.7081,43.1907],[16.6882,43.1987],[16.6814,43.2122],[16.6608,43.2212],[16.6031,43.2277],[16.5839,43.2217],[16.5777,43.2377],[16.5705,43.2379],[16.5593,43.239]]]}},{"type":"Feature","properties":{},"geometry":{"type":"Polygon","coordinates":[[[16.1835,43.0867],[16.1351,43.0857],[16.0847,43.0757],[16.0332,43.0571],[16.0321,43.0511],[16.0472,43.0506],[16.061,43.0375],[16.0816,43.0441],[16.0871,43.0252],[16.0682,43.0207],[16.0606,43.0062],[16.0771,43.0011],[16.107,43.0062],[16.1671,43.0127],[16.211,43.0102],[16.233,43.0157],[16.2625,43.032],[16.2738,43.0531],[16.267,43.0684],[16.255,43.0777],[16.2388,43.0812],[16.2141,43.0769],[16.2028,43.0817],[16.1835,43.0867]]]}},{"type":"Feature","properties":{},"geometry":{"type":"Polygon","coordinates":[[[16.2103,43.4195],[16.1842,43.4155],[16.1629,43.409],[16.1739,43.3896],[16.2,43.3781],[16.246,43.3716],[16.29,43.3531],[16.3463,43.3317],[16.3998,43.3187],[16.4424,43.2977],[16.4802,43.2812],[16.542,43.2642],[16.6663,43.2527],[16.7912,43.2557],[16.8853,43.2767],[16.9059,43.3162],[16.8537,43.3462],[16.7816,43.3626],[16.5536,43.3956],[16.509,43.3901],[16.4321,43.4011],[16.4225,43.3971],[16.4218,43.3821],[16.4369,43.3681],[16.4294,43.3586],[16.4218,43.3382],[16.4046,43.3442],[16.3882,43.3531],[16.3607,43.3836],[16.3216,43.4031],[16.2756,43.4175],[16.2103,43.4195]]]}},{"type":"Feature","properties":{},"geometry":{"type":"Polygon","coordinates":[[[16.1286,43.4621],[16.1173,43.4494],[16.109,43.4425],[16.1063,43.4292],[16.1156,43.425],[16.1108,43.4208],[16.1242,43.4133],[16.1396,43.4105],[16.1334,43.424],[16.1451,43.426],[16.1571,43.4312],[16.175,43.4292],[16.1839,43.4335],[16.1849,43.4457],[16.1636,43.4594],[16.1286,43.4621]]]}},{"type":"Feature","properties":{},"geometry":{"type":"Polygon","coordinates":[[[16.074,43.4599],[16.0507,43.4542],[16.0497,43.4472],[16.0582,43.4429],[16.0727,43.4422],[16.0795,43.4347],[16.0898,43.4355],[16.1018,43.4444],[16.096,43.4507],[16.0854,43.4579],[16.074,43.4599]]]}},{"type":"Feature","properties":{},"geometry":{"type":"Polygon","coordinates":[[[16.0052,42.9961],[15.9987,42.9933],[15.9958,42.9805],[15.9982,42.9728],[15.9973,42.9633],[15.9942,42.9586],[15.9944,42.9514],[16.0078,42.9588],[16.0174,42.9555],[16.0244,42.9628],[16.0282,42.9862],[16.0052,42.9961]]]}},{"type":"Feature","properties":{},"geometry":{"type":"Polygon","coordinates":[[[15.7656,43.0364],[15.7492,43.0361],[15.7232,43.0259],[15.7247,43.0172],[15.74,43.0141],[15.7515,43.0161],[15.7681,43.0231],[15.7726,43.0313],[15.7656,43.0364]]]}},{"type":"Feature","properties":{},"geometry":{"type":"Polygon","coordinates":[[[15.8001,43.0088],[15.798,43.0055],[15.8019,43.0033],[15.8049,43.006],[15.8001,43.0088]]]}},{"type":"Feature","properties":{},"geometry":{"type":"Polygon","coordinates":[[[15.684,43.7272],[15.6662,43.7207],[15.6699,43.7064],[15.6545,43.7071],[15.6459,43.7126],[15.6325,43.7131],[15.6401,43.6932],[15.6706,43.6773],[15.6984,43.6666],[15.7235,43.6646],[15.7269,43.6532],[15.7053,43.6502],[15.6686,43.6684],[15.6243,43.6815],[15.5968,43.6857],[15.5954,43.6758],[15.6064,43.6617],[15.6274,43.654],[15.661,43.6284],[15.6857,43.6229],[15.7166,43.6197],[15.7173,43.6271],[15.7448,43.6197],[15.7496,43.6264],[15.7228,43.6438],[15.7465,43.645],[15.7379,43.6532],[15.7468,43.6547],[15.7462,43.6632],[15.7644,43.6597],[15.7702,43.6684],[15.775,43.6766],[15.787,43.6614],[15.7983,43.6649],[15.8183,43.6574],[15.81,43.655],[15.8196,43.642],[15.8443,43.6405],[15.8471,43.648],[15.8189,43.6728],[15.7812,43.6892],[15.7455,43.7131],[15.7362,43.7083],[15.7238,43.7106],[15.7115,43.7165],[15.707,43.7098],[15.6943,43.7257],[15.684,43.7272]]]}},{"type":"Feature","properties":{},"geometry":{"type":"Polygon","coordinates":[[[15.8976,43.5748],[15.8908,43.5747],[15.8936,43.5689],[15.8992,43.5689],[15.9051,43.5676],[15.9067,43.5691],[15.9039,43.5722],[15.8994,43.5722],[15.8976,43.5748]]]}},{"type":"Feature","properties":{},"geometry":{"type":"Polygon","coordinates":[[[15.8724,43.5786],[15.8709,43.5782],[15.8693,43.5775],[15.8695,43.5759],[15.8729,43.5753],[15.8724,43.5786]]]}},{"type":"Feature","properties":{},"geometry":{"type":"Polygon","coordinates":[[[15.8772,43.5675],[15.8746,43.5666],[15.8742,43.5655],[15.877,43.5641],[15.8799,43.5634],[15.8794,43.5652],[15.8772,43.5675]]]}},{"type":"Feature","properties":{},"geometry":{"type":"Polygon","coordinates":[[[15.8989,43.5601],[15.8983,43.56],[15.8977,43.5599],[15.8976,43.559],[15.8989,43.5585],[15.8997,43.5591],[15.8989,43.5601]]]}},{"type":"Feature","properties":{},"geometry":{"type":"Polygon","coordinates":[[[15.8881,43.541],[15.8868,43.5404],[15.886,43.5393],[15.8879,43.5372],[15.8918,43.5368],[15.8914,43.5397],[15.8881,43.541]]]}},{"type":"Feature","properties":{},"geometry":{"type":"Polygon","coordinates":[[[14.5627,45.2583],[14.5574,45.2577],[14.5522,45.2537],[14.5564,45.2479],[14.5526,45.2469],[14.5481,45.2414],[14.5432,45.2398],[14.5327,45.2386],[14.5375,45.2317],[14.5468,45.2238],[14.5474,45.2136],[14.5299,45.2309],[14.5258,45.2273],[14.5263,45.2172],[14.5313,45.2129],[14.5401,45.2057],[14.5351,45.2037],[14.5292,45.1999],[14.5303,45.1876],[14.5349,45.177],[14.5401,45.168],[14.5341,45.1624],[14.5286,45.1548],[14.5231,45.1538],[14.5188,45.1511],[14.5256,45.1465],[14.5229,45.1291],[14.5205,45.1226],[14.5052,45.1192],[14.5021,45.1226],[14.4918,45.1276],[14.474,45.1303],[14.4662,45.1253],[14.4616,45.118],[14.4676,45.1077],[14.4678,45.1002],[14.4535,45.1004],[14.4429,45.0984],[14.4302,45.0946],[14.4271,45.0844],[14.43,45.0695],[14.4456,45.0562],[14.4688,45.038],[14.4793,45.0289],[14.4937,45.0226],[14.5059,45.0182],[14.514,45.0205],[14.5215,45.0142],[14.5359,45.0126],[14.5476,45.0129],[14.5595,45.0104],[14.5765,45.018],[14.5768,45.0236],[14.6003,45.0155],[14.619,45.0112],[14.6195,45.0067],[14.6218,44.9904],[14.6152,44.9881],[14.6125,44.9809],[14.6479,44.9633],[14.6597,44.9629],[14.6733,44.9641],[14.6837,44.9556],[14.6861,44.9507],[14.6968,44.9449],[14.711,44.94],[14.7263,44.9343],[14.737,44.9343],[14.756,44.9358],[14.7648,44.9401],[14.7634,44.948],[14.7493,44.9603],[14.7555,44.9686],[14.7648,44.9654],[14.772,44.9666],[14.791,44.9607],[14.8085,44.961],[14.8121,44.9658],[14.8156,44.9709],[14.8212,44.9681],[14.8243,44.9789],[14.8166,44.9888],[14.8037,44.9986],[14.7943,45.0068],[14.7804,45.0096],[14.7646,45.0206],[14.7442,45.0387],[14.7486,45.0519],[14.7411,45.0601],[14.7395,45.0711],[14.7201,45.0727],[14.7095,45.0736],[14.7059,45.0679],[14.6839,45.0781],[14.6685,45.0934],[14.6712,45.1061],[14.6669,45.1188],[14.6749,45.1257],[14.684,45.134],[14.679,45.1426],[14.6728,45.1583],[14.6676,45.1581],[14.6658,45.1489],[14.6551,45.1531],[14.6528,45.1589],[14.6425,45.1619],[14.636,45.1636],[14.6327,45.167],[14.6255,45.1822],[14.6172,45.1874],[14.6172,45.1923],[14.611,45.1986],[14.5997,45.2132],[14.5831,45.2297],[14.6022,45.2233],[14.6046,45.2241],[14.6043,45.2276],[14.5954,45.2357],[14.5913,45.2405],[14.5758,45.2432],[14.574,45.2375],[14.5678,45.242],[14.5704,45.2452],[14.5672,45.2496],[14.5686,45.2542],[14.5627,45.2583]]]}},{"type":"Feature","properties":{},"geometry":{"type":"Polygon","coordinates":[[[14.3267,45.1776],[14.3021,45.1767],[14.2963,45.1549],[14.2582,45.1251],[14.2685,45.1024],[14.287,45.0956],[14.2994,45.0645],[14.3337,45.0532],[14.3451,45.0403],[14.3481,45.024],[14.3406,45.0104],[14.3533,44.9922],[14.3739,44.9874],[14.3832,44.967],[14.3763,44.9524],[14.3845,44.9373],[14.3907,44.9089],[14.3718,44.9096],[14.3543,44.9194],[14.3169,44.9563],[14.3004,44.9458],[14.2984,44.932],[14.2956,44.9157],[14.2956,44.9023],[14.3056,44.9033],[14.3179,44.8671],[14.3224,44.8517],[14.3217,44.8225],[14.3461,44.806],[14.3536,44.8103],[14.3588,44.7918],[14.3626,44.7672],[14.3718,44.7484],[14.3863,44.7401],[14.388,44.7199],[14.3866,44.7023],[14.3677,44.7038],[14.3526,44.7128],[14.3375,44.7155],[14.3313,44.7018],[14.3406,44.6608],[14.3519,44.6379],[14.3756,44.6213],[14.3842,44.6034],[14.3636,44.5924],[14.3681,44.5782],[14.3622,44.5628],[14.3742,44.5555],[14.3928,44.5521],[14.4048,44.5491],[14.4072,44.5516],[14.4134,44.5638],[14.4206,44.557],[14.4154,44.5506],[14.424,44.5433],[14.4353,44.5408],[14.4422,44.5271],[14.457,44.5188],[14.4748,44.5078],[14.4875,44.4965],[14.5085,44.4816],[14.5198,44.4713],[14.5359,44.4732],[14.5359,44.4678],[14.527,44.4571],[14.5332,44.4451],[14.5507,44.4387],[14.5613,44.4406],[14.5699,44.4402],[14.5844,44.4387],[14.5662,44.4642],[14.5565,44.4701],[14.5466,44.4825],[14.5483,44.4923],[14.5349,44.5053],[14.5267,44.5173],[14.5095,44.5261],[14.4889,44.5332],[14.4601,44.5555],[14.4268,44.5841],[14.425,44.601],[14.4144,44.6024],[14.4113,44.6156],[14.4024,44.6222],[14.3986,44.631],[14.4058,44.6354],[14.4034,44.6704],[14.4106,44.6647],[14.422,44.6652],[14.4319,44.6442],[14.4553,44.6252],[14.4683,44.6112],[14.4965,44.5988],[14.5057,44.6039],[14.5201,44.6046],[14.5359,44.62],[14.5507,44.6286],[14.5456,44.6408],[14.5308,44.6459],[14.5177,44.6474],[14.5188,44.6601],[14.5098,44.676],[14.4827,44.6979],[14.4724,44.7216],[14.4772,44.7316],[14.4838,44.7423],[14.4721,44.7726],[14.4539,44.7889],[14.4738,44.7877],[14.468,44.8403],[14.4501,44.8751],[14.4659,44.9016],[14.4649,44.9138],[14.4676,44.9327],[14.4779,44.95],[14.4913,44.9541],[14.4738,44.9823],[14.4645,44.9867],[14.4508,44.9867],[14.4381,44.9782],[14.4051,45.0134],[14.3773,45.0726],[14.3663,45.0878],[14.3624,45.1049],[14.3607,45.1158],[14.3634,45.1282],[14.3677,45.1379],[14.3763,45.1411],[14.3715,45.1578],[14.3612,45.1692],[14.3456,45.171],[14.3318,45.1727],[14.3267,45.1776]]]}},{"type":"Feature","properties":{},"geometry":{"type":"Polygon","coordinates":[[[14.3176,44.794],[14.3123,44.7895],[14.3052,44.7831],[14.2982,44.7772],[14.3044,44.7748],[14.3001,44.7689],[14.3004,44.7601],[14.3075,44.7554],[14.3147,44.7615],[14.3215,44.7728],[14.3234,44.79],[14.3176,44.794]]]}},{"type":"Feature","properties":{},"geometry":{"type":"Polygon","coordinates":[[[14.2817,44.6909],[14.2687,44.6876],[14.2627,44.6832],[14.2512,44.6785],[14.2527,44.6719],[14.2451,44.6673],[14.2364,44.6613],[14.2357,44.6483],[14.2398,44.6349],[14.23,44.6329],[14.2278,44.6259],[14.2357,44.617],[14.2474,44.6174],[14.2556,44.6155],[14.2776,44.6023],[14.2855,44.6034],[14.2872,44.6098],[14.2685,44.6368],[14.2694,44.6481],[14.2714,44.6534],[14.2886,44.6553],[14.2917,44.6643],[14.2817,44.6909]]]}},{"type":"Feature","properties":{},"geometry":{"type":"Polygon","coordinates":[[[14.2956,44.5945],[14.293,44.5905],[14.2989,44.583],[14.3085,44.5789],[14.3135,44.573],[14.3207,44.5655],[14.3301,44.5595],[14.3377,44.5579],[14.3452,44.5577],[14.3428,44.5632],[14.3299,44.5693],[14.3258,44.5747],[14.3121,44.5869],[14.2956,44.5945]]]}},{"type":"Feature","properties":{},"geometry":{"type":"Polygon","coordinates":[[[14.7677,44.9356],[14.7646,44.9333],[14.7625,44.923],[14.7673,44.9106],[14.7795,44.9043],[14.7886,44.9027],[14.8252,44.886],[14.8406,44.8813],[14.8329,44.9009],[14.8254,44.9129],[14.8115,44.9198],[14.7926,44.9309],[14.7687,44.9355],[14.7677,44.9356]]]}},{"type":"Feature","properties":{},"geometry":{"type":"Polygon","coordinates":[[[14.7476,44.8866],[14.7431,44.8845],[14.7426,44.8773],[14.7306,44.8768],[14.737,44.869],[14.7409,44.8618],[14.7495,44.8573],[14.7687,44.8533],[14.7814,44.8536],[14.7845,44.8588],[14.7716,44.874],[14.7476,44.8866]]]}},{"type":"Feature","properties":{},"geometry":{"type":"Polygon","coordinates":[[[14.8,44.8532],[14.7981,44.8465],[14.8029,44.8383],[14.8142,44.8336],[14.8183,44.8285],[14.8248,44.8234],[14.8307,44.8213],[14.8276,44.8302],[14.8309,44.8288],[14.8333,44.8352],[14.8384,44.834],[14.8444,44.8402],[14.8408,44.8475],[14.8279,44.851],[14.8137,44.8499],[14.8,44.8532]]]}},{"type":"Feature","properties":{},"geometry":{"type":"Polygon","coordinates":[[[14.7248,44.8566],[14.7189,44.8515],[14.7076,44.8449],[14.6939,44.8491],[14.6746,44.8464],[14.6746,44.8391],[14.688,44.8274],[14.6959,44.8172],[14.6846,44.8162],[14.6911,44.8081],[14.6946,44.7967],[14.6716,44.8057],[14.6585,44.803],[14.6472,44.7921],[14.6633,44.7709],[14.6939,44.7521],[14.7337,44.754],[14.7385,44.7492],[14.7649,44.7472],[14.7663,44.7401],[14.7917,44.7219],[14.8243,44.684],[14.8436,44.6826],[14.8497,44.6943],[14.8727,44.7006],[14.8693,44.7248],[14.8559,44.7401],[14.8151,44.7706],[14.7519,44.8157],[14.7615,44.824],[14.7694,44.8374],[14.7567,44.852],[14.7248,44.8566]]]}},{"type":"Feature","properties":{},"geometry":{"type":"Polygon","coordinates":[[[14.5226,44.9905],[14.5073,44.9811],[14.4843,44.9851],[14.4839,44.9794],[14.4989,44.9701],[14.5104,44.9648],[14.528,44.9531],[14.5452,44.9508],[14.5572,44.9567],[14.5536,44.9749],[14.5413,44.9791],[14.532,44.9857],[14.5226,44.9905]]]}},{"type":"Feature","properties":{},"geometry":{"type":"Polygon","coordinates":[[[14.7522,44.4286],[14.7457,44.4191],[14.7491,44.4061],[14.7605,44.3968],[14.7684,44.3801],[14.7491,44.3786],[14.7392,44.3698],[14.7512,44.3599],[14.789,44.3366],[14.8206,44.3393],[14.8319,44.3531],[14.8147,44.3663],[14.8,44.381],[14.8099,44.3914],[14.8151,44.3933],[14.8164,44.4029],[14.7883,44.4262],[14.7677,44.4225],[14.7522,44.4286]]]}},{"type":"Feature","properties":{},"geometry":{"type":"Polygon","coordinates":[[[14.6805,44.4186],[14.6657,44.4147],[14.6564,44.4061],[14.6578,44.3923],[14.6784,44.3833],[14.6819,44.3693],[14.6939,44.3548],[14.721,44.343],[14.734,44.3504],[14.7285,44.3668],[14.709,44.3739],[14.7028,44.3828],[14.7128,44.3968],[14.7038,44.4078],[14.6805,44.4186]]]}},{"type":"Feature","properties":{},"geometry":{"type":"Polygon","coordinates":[[[14.5792,44.369],[14.572,44.369],[14.5672,44.3661],[14.5741,44.3568],[14.5802,44.3418],[14.5916,44.3285],[14.6094,44.3265],[14.6259,44.3153],[14.6479,44.3042],[14.6712,44.299],[14.6733,44.3037],[14.6369,44.3337],[14.6273,44.3354],[14.5988,44.356],[14.5792,44.369]]]}},{"type":"Feature","properties":{},"geometry":{"type":"Polygon","coordinates":[[[14.7402,44.7092],[14.7301,44.7064],[14.7294,44.6943],[14.7361,44.6824],[14.7552,44.6605],[14.772,44.6439],[14.8103,44.6073],[14.8278,44.5944],[14.8295,44.5877],[14.8446,44.5778],[14.854,44.5769],[14.8607,44.5711],[14.8576,44.5648],[14.8703,44.559],[14.8714,44.5548],[14.866,44.5504],[14.8736,44.5441],[14.8786,44.5381],[14.8793,44.5322],[14.8892,44.5307],[14.8961,44.5238],[14.906,44.5184],[14.9121,44.5156],[14.9117,44.5121],[14.9201,44.5003],[14.909,44.4988],[14.9047,44.4982],[14.9004,44.4977],[14.898,44.5003],[14.8942,44.5025],[14.8956,44.4986],[14.8983,44.4917],[14.9093,44.4796],[14.9328,44.4649],[14.9514,44.4614],[14.9627,44.4623],[14.9653,44.4585],[14.9728,44.4588],[14.9809,44.4504],[14.996,44.442],[14.9996,44.4367],[14.9927,44.4381],[14.9951,44.435],[14.9984,44.4328],[15.0013,44.4355],[15.0077,44.4312],[15.0192,44.4253],[15.0247,44.4176],[15.0356,44.4044],[15.0305,44.4013],[15.0348,44.3929],[15.0465,44.3873],[15.0552,44.389],[15.0647,44.3866],[15.0703,44.3877],[15.0695,44.3969],[15.0813,44.3961],[15.1144,44.3776],[15.112,44.3715],[15.0947,44.3726],[15.0885,44.3689],[15.0856,44.3608],[15.0913,44.3533],[15.0947,44.3485],[15.104,44.3447],[15.1005,44.3391],[15.093,44.3435],[15.0911,44.3378],[15.1074,44.3178],[15.1156,44.3161],[15.151,44.2955],[15.163,44.2907],[15.1773,44.2877],[15.1822,44.2896],[15.1822,44.294],[15.1699,44.3032],[15.1599,44.3064],[15.151,44.3138],[15.1356,44.3278],[15.1376,44.3306],[15.1829,44.3149],[15.1886,44.3167],[15.1927,44.3139],[15.2123,44.3087],[15.2155,44.3043],[15.2219,44.3006],[15.2293,44.299],[15.2336,44.2946],[15.2392,44.2951],[15.2386,44.2993],[15.2341,44.302],[15.2319,44.3058],[15.225,44.311],[15.2155,44.3141],[15.2143,44.3189],[15.2219,44.3161],[15.2374,44.3154],[15.2391,44.3194],[15.2269,44.3295],[15.2114,44.3396],[15.2003,44.3496],[15.2097,44.3441],[15.2229,44.3376],[15.2403,44.3304],[15.2455,44.3271],[15.2505,44.3255],[15.2529,44.3225],[15.2563,44.321],[15.2566,44.3219],[15.2554,44.3245],[15.2563,44.3247],[15.2586,44.3258],[15.2604,44.3283],[15.2624,44.3342],[15.2576,44.3391],[15.2518,44.3484],[15.2377,44.3604],[15.2085,44.3783],[15.1927,44.3813],[15.1845,44.395],[15.1529,44.4127],[15.122,44.4446],[15.1007,44.4534],[15.076,44.473],[15.0877,44.474],[15.0533,44.5166],[15.0293,44.5269],[15.0032,44.5347],[14.9723,44.5601],[14.9654,44.5763],[14.9139,44.6134],[14.8933,44.6154],[14.8686,44.6149],[14.8659,44.5968],[14.7402,44.7092]]]}},{"type":"Feature","properties":{},"geometry":{"type":"Polygon","coordinates":[[[14.8439,44.4916],[14.8422,44.4816],[14.8659,44.4659],[14.8793,44.4507],[14.8961,44.4355],[14.9387,44.4048],[14.9538,44.4053],[14.9586,44.3982],[14.9706,44.3982],[14.974,44.395],[14.9864,44.398],[14.9902,44.3923],[15.0018,44.3931],[15.0005,44.3977],[14.9936,44.4009],[14.9829,44.4007],[14.9709,44.4063],[14.9572,44.4169],[14.9421,44.4254],[14.9225,44.4345],[14.9153,44.4495],[14.8971,44.458],[14.8758,44.4578],[14.8779,44.4723],[14.859,44.4884],[14.8453,44.4909],[14.8439,44.4916]]]}},{"type":"Feature","properties":{},"geometry":{"type":"Polygon","coordinates":[[[15.019,44.3297],[15.0157,44.3234],[15.0182,44.3115],[15.0303,44.297],[15.0426,44.2844],[15.0685,44.2831],[15.0805,44.2859],[15.0801,44.2945],[15.0968,44.2954],[15.1161,44.2896],[15.1143,44.2855],[15.1169,44.2815],[15.1214,44.2789],[15.1365,44.2816],[15.1433,44.2855],[15.1374,44.2912],[15.1275,44.2976],[15.1059,44.3116],[15.0935,44.3125],[15.0818,44.318],[15.0499,44.3288],[15.019,44.3297]]]}},{"type":"Feature","properties":{},"geometry":{"type":"Polygon","coordinates":[[[14.7529,44.2988],[14.7471,44.2941],[14.7515,44.2831],[14.7354,44.2863],[14.7323,44.2811],[14.7351,44.2683],[14.7478,44.2577],[14.7491,44.2516],[14.7491,44.2445],[14.7687,44.2437],[14.7766,44.2521],[14.7704,44.2654],[14.7845,44.255],[14.7855,44.2516],[14.7862,44.2452],[14.7948,44.2432],[14.8219,44.2039],[14.8326,44.197],[14.8449,44.1987],[14.8405,44.2073],[14.8233,44.2226],[14.8206,44.2285],[14.8264,44.2233],[14.8374,44.2186],[14.8532,44.2095],[14.8669,44.2056],[14.8851,44.1982],[14.8957,44.1903],[14.9091,44.1837],[14.9273,44.1726],[14.9383,44.1655],[14.9452,44.1696],[14.9369,44.1812],[14.9167,44.1923],[14.904,44.2004],[14.916,44.2125],[14.9057,44.2238],[14.8923,44.2309],[14.8824,44.2319],[14.8851,44.2393],[14.8755,44.241],[14.8779,44.2248],[14.8662,44.2356],[14.8494,44.241],[14.8436,44.2494],[14.8288,44.2548],[14.8092,44.2663],[14.7529,44.2988]]]}},{"type":"Feature","properties":{},"geometry":{"type":"Polygon","coordinates":[[[14.6877,44.3339],[14.7109,44.316],[14.7193,44.3146],[14.6951,44.3327],[14.6877,44.3339]]]}},{"type":"Feature","properties":{},"geometry":{"type":"Polygon","coordinates":[[[14.6925,44.2951],[14.6839,44.2904],[14.6873,44.2838],[14.6971,44.2786],[14.7081,44.2705],[14.7148,44.2687],[14.7203,44.2748],[14.7255,44.2719],[14.7297,44.2735],[14.7287,44.2788],[14.7232,44.2858],[14.7098,44.2935],[14.7025,44.2918],[14.6925,44.2951]]]}},{"type":"Feature","properties":{},"geometry":{"type":"Polygon","coordinates":[[[14.949,44.2053],[14.9483,44.2041],[14.9397,44.2041],[14.9376,44.1896],[14.9582,44.1716],[14.9651,44.1628],[14.9751,44.1539],[14.9936,44.1352],[15.009,44.1327],[15.0173,44.1253],[15.0317,44.1211],[15.0454,44.1191],[15.0447,44.1307],[15.03,44.1455],[15.006,44.1623],[14.9953,44.164],[14.9682,44.1898],[14.949,44.2053]]]}},{"type":"Feature","properties":{},"geometry":{"type":"Polygon","coordinates":[[[14.8894,44.1773],[14.887,44.1726],[14.8954,44.165],[14.9024,44.161],[14.9124,44.1594],[14.917,44.1539],[14.9248,44.1506],[14.9306,44.1483],[14.9376,44.1465],[14.9344,44.1423],[14.9412,44.1418],[14.9486,44.1437],[14.9478,44.1373],[14.9517,44.1341],[14.9553,44.1352],[14.95,44.1461],[14.943,44.1543],[14.9242,44.1663],[14.8894,44.1773]]]}},{"type":"Feature","properties":{},"geometry":{"type":"Polygon","coordinates":[[[14.8394,44.19],[14.8484,44.1811],[14.8501,44.1711],[14.8576,44.162],[14.8611,44.1536],[14.8511,44.1555],[14.8415,44.1522],[14.8324,44.1567],[14.8482,44.1578],[14.8394,44.1684],[14.8212,44.1648],[14.814,44.1571],[14.8161,44.1475],[14.8357,44.1358],[14.8547,44.1259],[14.8779,44.1205],[14.8777,44.1285],[14.9136,44.1029],[14.91,44.0907],[14.9309,44.0862],[14.9692,44.0621],[15.0011,44.0365],[15.0228,44.01],[15.0381,43.9948],[15.064,43.9629],[15.0777,43.9481],[15.0908,43.9361],[15.1199,43.911],[15.1628,43.8828],[15.1735,43.8717],[15.1802,43.8646],[15.1922,43.8609],[15.2025,43.8636],[15.2075,43.8608],[15.2006,43.855],[15.2049,43.8498],[15.2161,43.8475],[15.2186,43.851],[15.221,43.8535],[15.237,43.8407],[15.2356,43.8351],[15.2272,43.8406],[15.2161,43.8395],[15.2192,43.8292],[15.2348,43.8207],[15.2463,43.806],[15.2645,43.7966],[15.2823,43.7898],[15.2791,43.8103],[15.2868,43.8126],[15.2901,43.7996],[15.2938,43.7969],[15.3038,43.7981],[15.3232,43.7897],[15.3263,43.7816],[15.2947,43.7862],[15.2925,43.7805],[15.3074,43.7732],[15.3361,43.7618],[15.3555,43.7491],[15.3872,43.7307],[15.4112,43.717],[15.4205,43.7188],[15.4296,43.7127],[15.4423,43.7134],[15.4612,43.6962],[15.4732,43.6845],[15.4957,43.674],[15.5156,43.6727],[15.5221,43.6762],[15.5172,43.6794],[15.4967,43.6803],[15.4859,43.6891],[15.4871,43.6948],[15.5105,43.6851],[15.5233,43.6835],[15.5235,43.69],[15.5063,43.6992],[15.483,43.7088],[15.4754,43.7168],[15.4935,43.7219],[15.4888,43.7274],[15.4823,43.7332],[15.4643,43.7396],[15.433,43.7592],[15.4058,43.7679],[15.3702,43.7831],[15.3577,43.7996],[15.333,43.8167],[15.2991,43.8366],[15.2614,43.8598],[15.2631,43.8628],[15.2741,43.8574],[15.2813,43.8567],[15.2904,43.8568],[15.2876,43.8605],[15.2784,43.8639],[15.2679,43.8688],[15.2513,43.8743],[15.2411,43.8822],[15.2478,43.8844],[15.2607,43.8744],[15.271,43.8741],[15.2791,43.872],[15.2959,43.859],[15.31,43.8496],[15.3256,43.8425],[15.341,43.8334],[15.3525,43.8301],[15.3628,43.8193],[15.3683,43.8173],[15.3802,43.8141],[15.3759,43.8203],[15.3747,43.8268],[15.3852,43.8293],[15.3793,43.8321],[15.3755,43.8291],[15.3706,43.8294],[15.3635,43.8343],[15.3553,43.8395],[15.352,43.8486],[15.341,43.8568],[15.3388,43.8634],[15.347,43.8614],[15.3421,43.8781],[15.3354,43.8819],[15.3258,43.8793],[15.3182,43.8876],[15.3057,43.8895],[15.3067,43.8843],[15.311,43.8756],[15.2988,43.8822],[15.3005,43.8863],[15.2954,43.8907],[15.2813,43.8917],[15.2614,43.9004],[15.2463,43.9033],[15.2264,43.9053],[15.2135,43.915],[15.179,43.9325],[15.1697,43.9431],[15.1501,43.9565],[15.151,43.9642],[15.135,43.9722],[15.1283,43.9672],[15.1249,43.9717],[15.1246,43.9802],[15.1088,43.9866],[15.1002,43.9912],[15.0926,43.997],[15.0916,44.0007],[15.0902,44.005],[15.0817,44.0016],[15.0782,43.9979],[15.0672,44.0031],[15.0595,44.0078],[15.0511,44.0165],[15.0425,44.0248],[15.0338,44.0359],[15.0322,44.0445],[15.0387,44.0516],[15.0296,44.0538],[15.0291,44.0629],[15.0171,44.074],[15.0123,44.084],[14.9931,44.0963],[14.9812,44.0904],[14.9713,44.0952],[14.9608,44.1002],[14.9533,44.1046],[14.9618,44.1035],[14.9569,44.1097],[14.9514,44.1072],[14.9507,44.1103],[14.9551,44.1151],[14.9502,44.1219],[14.939,44.1239],[14.929,44.1318],[14.9218,44.1291],[14.9143,44.1355],[14.9162,44.1395],[14.9109,44.144],[14.8856,44.1653],[14.8731,44.1696],[14.8635,44.1752],[14.8576,44.1845],[14.8504,44.1895],[14.8394,44.19]]]}},{"type":"Feature","properties":{},"geometry":{"type":"Polygon","coordinates":[[[15.0691,44.0873],[15.0681,44.0861],[15.0702,44.0698],[15.053,44.0861],[15.0485,44.0829],[15.065,44.0614],[15.0753,44.0493],[15.0997,44.0397],[15.0983,44.0301],[15.1103,44.0244],[15.1065,44.0192],[15.1138,44.0133],[15.1203,44.0155],[15.1344,44.0094],[15.1635,43.994],[15.1731,43.9938],[15.1653,44.0052],[15.1804,44.0049],[15.1793,44.0116],[15.1649,44.0178],[15.1539,44.0269],[15.1395,44.0432],[15.1035,44.0728],[15.0691,44.0873]]]}},{"type":"Feature","properties":{},"geometry":{"type":"Polygon","coordinates":[[[15.0506,44.0445],[15.0489,44.0387],[15.0451,44.0378],[15.0386,44.0426],[15.0356,44.0384],[15.0413,44.032],[15.0435,44.036],[15.0501,44.0353],[15.0516,44.0296],[15.0521,44.0227],[15.0633,44.0154],[15.0806,44.0054],[15.0892,44.0062],[15.0866,44.0122],[15.0763,44.028],[15.066,44.0331],[15.0676,44.0416],[15.0506,44.0445]]]}},{"type":"Feature","properties":{},"geometry":{"type":"Polygon","coordinates":[[[15.1943,43.9493],[15.1913,43.9449],[15.1989,43.9333],[15.2149,43.922],[15.2188,43.9224],[15.2288,43.9141],[15.2337,43.9151],[15.214,43.941],[15.1943,43.9493]]]}},{"type":"Feature","properties":{},"geometry":{"type":"Polygon","coordinates":[[[14.9874,44.19],[14.9848,44.1871],[14.9867,44.181],[14.9941,44.1816],[14.9962,44.179],[14.9994,44.1751],[15.0034,44.172],[15.0044,44.1747],[15.0061,44.1712],[15.0113,44.1687],[15.0164,44.1677],[15.02,44.1608],[15.0334,44.1483],[15.043,44.1419],[15.0573,44.139],[15.0593,44.1402],[15.0557,44.1472],[15.0597,44.1501],[15.0633,44.1476],[15.0655,44.1374],[15.0611,44.1347],[15.0671,44.1294],[15.077,44.1215],[15.0861,44.1178],[15.0914,44.1141],[15.095,44.1076],[15.1095,44.1034],[15.115,44.1032],[15.1244,44.0893],[15.1471,44.0703],[15.1838,44.0416],[15.1965,44.0318],[15.2016,44.031],[15.2046,44.034],[15.208,44.0343],[15.2056,44.031],[15.2101,44.0271],[15.2186,44.0303],[15.2216,44.0318],[15.2224,44.0266],[15.2149,44.0245],[15.2171,44.0211],[15.2233,44.0215],[15.2293,44.0245],[15.2341,44.0238],[15.2372,44.02],[15.2341,44.0154],[15.2363,44.0108],[15.237,44.0053],[15.2497,44.0099],[15.259,44.0032],[15.283,43.9766],[15.2973,43.9649],[15.3094,43.9512],[15.3323,43.9393],[15.3349,43.9339],[15.3443,43.9324],[15.3456,43.9286],[15.35,43.9266],[15.3533,43.927],[15.3524,43.9221],[15.3523,43.9164],[15.3633,43.908],[15.3706,43.9066],[15.3761,43.9075],[15.3839,43.9041],[15.3877,43.904],[15.3858,43.9122],[15.3918,43.9058],[15.3976,43.9036],[15.4054,43.8994],[15.4185,43.8914],[15.4282,43.8886],[15.4348,43.8887],[15.4409,43.8928],[15.4487,43.8858],[15.4554,43.8879],[15.4591,43.8929],[15.4581,43.8976],[15.4515,43.9028],[15.4429,43.9094],[15.4329,43.9178],[15.426,43.9227],[15.4118,43.9295],[15.4013,43.9332],[15.3928,43.9386],[15.3871,43.9509],[15.3918,43.9545],[15.3888,43.9585],[15.3728,43.9719],[15.3601,43.9782],[15.3431,43.9852],[15.3271,43.994],[15.2916,44.0141],[15.2739,44.0185],[15.2677,44.0281],[15.2597,44.0331],[15.2464,44.0497],[15.2281,44.0603],[15.2159,44.0698],[15.2135,44.0804],[15.1962,44.0822],[15.1871,44.0942],[15.1611,44.1083],[15.141,44.1247],[15.1167,44.1331],[15.0851,44.1531],[15.0538,44.1679],[15.0477,44.1604],[15.0274,44.1726],[15.0149,44.1714],[14.9874,44.19]]]}},{"type":"Feature","properties":{},"geometry":{"type":"Polygon","coordinates":[[[15.3819,43.9839],[15.3797,43.9829],[15.3772,43.9815],[15.3773,43.9802],[15.3797,43.9802],[15.379,43.9786],[15.3815,43.9771],[15.3846,43.9751],[15.3858,43.9763],[15.3871,43.9774],[15.3875,43.9752],[15.3907,43.9756],[15.3904,43.9776],[15.3877,43.9784],[15.3874,43.9806],[15.3834,43.9814],[15.3819,43.9839]]]}},{"type":"Feature","properties":{},"geometry":{"type":"Polygon","coordinates":[[[15.3912,43.9686],[15.391,43.9665],[15.3932,43.9657],[15.3953,43.9639],[15.3971,43.9627],[15.395,43.9602],[15.3939,43.9575],[15.3946,43.9559],[15.3977,43.956],[15.3997,43.9529],[15.4008,43.9518],[15.4043,43.9522],[15.4044,43.9512],[15.408,43.9499],[15.4091,43.9509],[15.411,43.9504],[15.4126,43.9527],[15.414,43.9547],[15.4117,43.9556],[15.4088,43.9557],[15.4078,43.957],[15.4063,43.9603],[15.3996,43.9623],[15.3987,43.9644],[15.3998,43.9659],[15.3961,43.9683],[15.3912,43.9686]]]}},{"type":"Feature","properties":{},"geometry":{"type":"Polygon","coordinates":[[[15.3918,43.9526],[15.3907,43.9521],[15.3906,43.9506],[15.3946,43.9468],[15.3974,43.9465],[15.3974,43.9447],[15.3992,43.944],[15.401,43.9431],[15.4034,43.9409],[15.4044,43.9391],[15.4091,43.9392],[15.4107,43.9375],[15.4132,43.9376],[15.4138,43.9383],[15.4133,43.9393],[15.4103,43.9396],[15.409,43.9409],[15.407,43.9424],[15.4041,43.9435],[15.403,43.9445],[15.4011,43.9453],[15.4002,43.9464],[15.3981,43.9471],[15.3977,43.9489],[15.3962,43.9499],[15.3943,43.9519],[15.3918,43.9526]]]}},{"type":"Feature","properties":{},"geometry":{"type":"Polygon","coordinates":[[[15.4134,43.9486],[15.4128,43.9482],[15.4126,43.9473],[15.4146,43.9473],[15.4145,43.9482],[15.4134,43.9486]]]}},{"type":"Feature","properties":{},"geometry":{"type":"Polygon","coordinates":[[[15.4273,43.9393],[15.4241,43.938],[15.4236,43.9365],[15.4258,43.9359],[15.4274,43.9355],[15.4286,43.9346],[15.4276,43.9333],[15.4309,43.9304],[15.4324,43.9327],[15.4322,43.9352],[15.4284,43.9358],[15.43,43.9385],[15.4273,43.9393]]]}},{"type":"Feature","properties":{},"geometry":{"type":"Polygon","coordinates":[[[15.4861,43.8719],[15.4811,43.8692],[15.4856,43.8658],[15.4969,43.865],[15.4954,43.861],[15.4833,43.8621],[15.4863,43.8567],[15.4899,43.85],[15.478,43.8467],[15.4832,43.8423],[15.4921,43.8474],[15.495,43.8402],[15.5024,43.8379],[15.5033,43.8329],[15.4964,43.8292],[15.5015,43.8242],[15.5082,43.8292],[15.512,43.827],[15.5105,43.8231],[15.5136,43.8208],[15.5194,43.8251],[15.5259,43.8254],[15.5316,43.8287],[15.5407,43.8273],[15.5405,43.8314],[15.5287,43.8293],[15.5204,43.8364],[15.5223,43.8389],[15.517,43.8453],[15.5197,43.8512],[15.5079,43.8583],[15.5038,43.8654],[15.4861,43.8719]]]}},{"type":"Feature","properties":{},"geometry":{"type":"Polygon","coordinates":[[[15.3934,43.8949],[15.3925,43.8924],[15.3955,43.8845],[15.4068,43.8806],[15.413,43.8834],[15.415,43.8816],[15.4191,43.8762],[15.4263,43.8748],[15.4294,43.877],[15.4305,43.8734],[15.4243,43.8719],[15.4267,43.8689],[15.4327,43.8635],[15.4432,43.8582],[15.4506,43.8577],[15.453,43.8563],[15.4519,43.852],[15.4542,43.8485],[15.4641,43.8491],[15.4617,43.8533],[15.4557,43.8563],[15.4521,43.8621],[15.4562,43.8632],[15.4621,43.8684],[15.4579,43.8712],[15.4504,43.873],[15.45,43.878],[15.4437,43.8787],[15.4349,43.878],[15.4349,43.8853],[15.4289,43.8881],[15.4224,43.888],[15.416,43.89],[15.4087,43.8921],[15.4054,43.8892],[15.4003,43.8936],[15.3934,43.8949]]]}},{"type":"Feature","properties":{},"geometry":{"type":"Polygon","coordinates":[[[15.2679,43.9434],[15.2658,43.9385],[15.2732,43.9357],[15.281,43.9336],[15.2811,43.9291],[15.2755,43.9284],[15.2737,43.926],[15.267,43.9263],[15.259,43.9302],[15.2549,43.9284],[15.2567,43.9242],[15.2588,43.9184],[15.2528,43.915],[15.2569,43.9114],[15.2624,43.907],[15.2684,43.9061],[15.2756,43.9033],[15.2767,43.9064],[15.2696,43.9095],[15.2634,43.9145],[15.2648,43.919],[15.2782,43.9198],[15.2854,43.9208],[15.2902,43.9253],[15.3016,43.9216],[15.3069,43.9125],[15.317,43.9116],[15.3252,43.9053],[15.3318,43.9059],[15.3472,43.8965],[15.3525,43.8962],[15.346,43.9042],[15.3342,43.9109],[15.3273,43.9136],[15.3194,43.9192],[15.3105,43.9276],[15.2885,43.9398],[15.282,43.9392],[15.2679,43.9434]]]}},{"type":"Feature","properties":{},"geometry":{"type":"Polygon","coordinates":[[[15.168,43.9643],[15.1679,43.9617],[15.172,43.9604],[15.1737,43.962],[15.168,43.9643]]]}},{"type":"Feature","properties":{},"geometry":{"type":"Polygon","coordinates":[[[15.1756,43.9569],[15.1753,43.9522],[15.1794,43.9524],[15.1805,43.9557],[15.1756,43.9569]]]}},{"type":"Feature","properties":{},"geometry":{"type":"Polygon","coordinates":[[[15.581,43.7386],[15.5764,43.7376],[15.5771,43.7323],[15.5887,43.7278],[15.5846,43.7221],[15.6018,43.7158],[15.609,43.7149],[15.6063,43.7238],[15.6167,43.7188],[15.6305,43.7214],[15.614,43.7307],[15.5977,43.7284],[15.581,43.7386]]]}},{"type":"Feature","properties":{},"geometry":{"type":"Polygon","coordinates":[[[15.5372,43.7129],[15.5165,43.7045],[15.5141,43.7035],[15.5208,43.6954],[15.5304,43.6995],[15.5269,43.7054],[15.5422,43.7056],[15.5372,43.7129]]]}},{"type":"Feature","properties":{},"geometry":{"type":"Polygon","coordinates":[[[15.5445,43.6954],[15.5436,43.6913],[15.5499,43.691],[15.5597,43.6853],[15.5623,43.689],[15.5445,43.6954]]]}},{"type":"Feature","properties":{},"geometry":{"type":"Polygon","coordinates":[[[15.5843,43.6833],[15.5842,43.6812],[15.5882,43.6808],[15.588,43.6827],[15.5843,43.6833]]]}},{"type":"Feature","properties":{},"geometry":{"type":"Polygon","coordinates":[[[15.5574,43.66],[15.5557,43.6597],[15.5571,43.657],[15.5595,43.6568],[15.5574,43.66]]]}},{"type":"Feature","properties":{},"geometry":{"type":"Polygon","coordinates":[[[15.6026,43.6357],[15.6022,43.6351],[15.602,43.6328],[15.6084,43.6314],[15.609,43.6325],[15.6054,43.6334],[15.6047,43.635],[15.6026,43.6357]]]}},{"type":"Feature","properties":{},"geometry":{"type":"Polygon","coordinates":[[[15.3543,43.8231],[15.3488,43.8218],[15.3501,43.8184],[15.3589,43.8141],[15.3558,43.8124],[15.358,43.8068],[15.373,43.8067],[15.3675,43.8015],[15.3718,43.7984],[15.3807,43.8067],[15.3652,43.8135],[15.3536,43.8228],[15.3543,43.8231]]]}},{"type":"Feature","properties":{},"geometry":{"type":"Polygon","coordinates":[[[14.8489,44.3911],[14.8424,44.3891],[14.8479,44.3803],[14.8585,44.3704],[14.8707,44.3689],[14.8746,44.3591],[14.8808,44.3603],[14.8582,44.3861],[14.8489,44.3911]]]}},{"type":"Feature","properties":{},"geometry":{"type":"Polygon","coordinates":[[[14.7818,44.2373],[14.7703,44.2283],[14.7629,44.2271],[14.7675,44.2195],[14.7823,44.216],[14.7849,44.2206],[14.7974,44.216],[14.801,44.2204],[14.7976,44.2238],[14.7854,44.2231],[14.7831,44.2269],[14.7902,44.233],[14.7818,44.2373]]]}},{"type":"Feature","properties":{},"geometry":{"type":"Polygon","coordinates":[[[14.7309,44.2652],[14.7264,44.2624],[14.7303,44.2602],[14.7269,44.2592],[14.7281,44.2563],[14.7321,44.2547],[14.7308,44.2523],[14.7364,44.2506],[14.7408,44.2507],[14.7346,44.2461],[14.7378,44.2444],[14.7453,44.2527],[14.7399,44.2531],[14.7354,44.254],[14.7328,44.2593],[14.7391,44.2591],[14.738,44.2636],[14.7309,44.2652]]]}},{"type":"Feature","properties":{},"geometry":{"type":"Polygon","coordinates":[[[14.734,44.4343],[14.7309,44.4318],[14.7348,44.428],[14.7398,44.4276],[14.7382,44.4336],[14.734,44.4343]]]}},{"type":"Feature","properties":{},"geometry":{"type":"Polygon","coordinates":[[[14.5425,44.5113],[14.5452,44.5054],[14.5498,44.4996],[14.5514,44.4926],[14.5608,44.4917],[14.5577,44.4825],[14.5644,44.4802],[14.5727,44.4832],[14.5713,44.4944],[14.5653,44.4977],[14.5658,44.5039],[14.5425,44.5113]]]}},{"type":"Feature","properties":{},"geometry":{"type":"Polygon","coordinates":[[[14.5811,44.5571],[14.5768,44.5548],[14.5789,44.5472],[14.5833,44.5445],[14.5904,44.543],[14.5964,44.5392],[14.5981,44.5419],[14.5895,44.5456],[14.5811,44.5571]]]}},{"type":"Feature","properties":{},"geometry":{"type":"Polygon","coordinates":[[[14.2882,44.5227],[14.2826,44.5185],[14.2863,44.515],[14.2881,44.5074],[14.3009,44.4994],[14.3064,44.4958],[14.3169,44.5025],[14.3257,44.5048],[14.3284,44.5114],[14.3267,44.5127],[14.3203,44.5108],[14.3159,44.5125],[14.3138,44.5162],[14.2882,44.5227]]]}},{"type":"Feature","properties":{},"geometry":{"type":"Polygon","coordinates":[[[14.5753,44.674],[14.5713,44.6739],[14.5716,44.6725],[14.5759,44.6675],[14.5815,44.6621],[14.5856,44.6656],[14.5813,44.6701],[14.5753,44.674]]]}},{"type":"Feature","properties":{},"geometry":{"type":"Polygon","coordinates":[[[14.684,44.6953],[14.6825,44.6943],[14.6814,44.6904],[14.6871,44.688],[14.6927,44.6882],[14.694,44.6899],[14.6891,44.6939],[14.684,44.6953]]]}},{"type":"Feature","properties":{},"geometry":{"type":"Polygon","coordinates":[[[14.6623,44.722],[14.6605,44.7219],[14.6583,44.7206],[14.6613,44.7164],[14.6681,44.7112],[14.6682,44.7138],[14.6654,44.7158],[14.6623,44.722]]]}},{"type":"Feature","properties":{},"geometry":{"type":"Polygon","coordinates":[[[14.4919,44.728],[14.4904,44.7273],[14.4901,44.7253],[14.488,44.7246],[14.4864,44.7233],[14.4884,44.7208],[14.4903,44.7213],[14.4903,44.7228],[14.4914,44.7241],[14.4939,44.723],[14.4943,44.7243],[14.493,44.7251],[14.4919,44.728]]]}},{"type":"Feature","properties":{},"geometry":{"type":"Polygon","coordinates":[[[14.3497,44.7777],[14.3482,44.7773],[14.3476,44.7763],[14.3476,44.7749],[14.3496,44.775],[14.3516,44.7755],[14.3523,44.7769],[14.3498,44.7777],[14.3497,44.7777]]]}},{"type":"Feature","properties":{},"geometry":{"type":"Polygon","coordinates":[[[15.3516,43.8901],[15.3509,43.8898],[15.3501,43.889],[15.352,43.8878],[15.3532,43.8883],[15.3528,43.8897],[15.3516,43.8901]]]}},{"type":"Feature","properties":{},"geometry":{"type":"Polygon","coordinates":[[[15.2477,43.9104],[15.2434,43.909],[15.2434,43.9074],[15.2459,43.9078],[15.2489,43.9082],[15.2506,43.9053],[15.2534,43.9052],[15.2519,43.9075],[15.2477,43.9104]]]}},{"type":"Feature","properties":{},"geometry":{"type":"Polygon","coordinates":[[[15.4381,43.6988],[15.4352,43.6981],[15.4356,43.6961],[15.441,43.6941],[15.4441,43.6912],[15.4453,43.6933],[15.442,43.6947],[15.4381,43.6988]]]}},{"type":"Feature","properties":{},"geometry":{"type":"Polygon","coordinates":[[[16.8157,43.0323],[16.8154,43.0314],[16.8157,43.0306],[16.8221,43.0278],[16.8241,43.0273],[16.8241,43.0281],[16.8205,43.029],[16.82,43.0297],[16.8191,43.0302],[16.8157,43.0323]]]}},{"type":"Feature","properties":{},"geometry":{"type":"Polygon","coordinates":[[[17.9502,42.6479],[17.9497,42.6477],[17.9488,42.6473],[17.9497,42.6467],[17.9514,42.645],[17.9527,42.644],[17.9542,42.6445],[17.9533,42.6453],[17.9521,42.647],[17.9502,42.6479]]]}},{"type":"Feature","properties":{},"geometry":{"type":"Polygon","coordinates":[[[15.3331,44.3182],[15.3325,44.3166],[15.3331,44.3159],[15.3386,44.3164],[15.3387,44.3178],[15.3331,44.3182]]]}},{"type":"Feature","properties":{},"geometry":{"type":"Polygon","coordinates":[[[15.3466,44.3202],[15.3464,44.3193],[15.3473,44.3175],[15.3504,44.3164],[15.3522,44.3143],[15.354,44.3142],[15.3558,44.3156],[15.3556,44.3175],[15.3525,44.3175],[15.351,44.3188],[15.3466,44.3202]]]}},{"type":"Feature","properties":{},"geometry":{"type":"Polygon","coordinates":[[[14.5683,44.4133],[14.5671,44.4127],[14.5662,44.4115],[14.5679,44.409],[14.5707,44.4082],[14.5719,44.4092],[14.5708,44.4122],[14.5683,44.4133]]]}},{"type":"Feature","properties":{},"geometry":{"type":"Polygon","coordinates":[[[14.7337,44.3047],[14.7335,44.3042],[14.7341,44.3036],[14.7351,44.3035],[14.7358,44.3034],[14.7361,44.3037],[14.7357,44.3042],[14.735,44.3046],[14.7344,44.3047],[14.7337,44.3047]]]}},{"type":"Feature","properties":{},"geometry":{"type":"Polygon","coordinates":[[[14.8933,44.3962],[14.8926,44.396],[14.892,44.3958],[14.8917,44.3955],[14.892,44.395],[14.8928,44.3944],[14.8938,44.3944],[14.8944,44.3948],[14.8944,44.3953],[14.8942,44.3959],[14.8933,44.3962]]]}},{"type":"Feature","properties":{},"geometry":{"type":"Polygon","coordinates":[[[14.1777,44.7304],[14.174,44.7294],[14.1727,44.7273],[14.1735,44.7264],[14.1779,44.7282],[14.1777,44.7304]]]}},{"type":"Feature","properties":{},"geometry":{"type":"Polygon","coordinates":[[[14.5684,44.9508],[14.5674,44.9498],[14.5693,44.9475],[14.5727,44.9464],[14.5785,44.9429],[14.5793,44.9431],[14.5746,44.9474],[14.5733,44.9472],[14.5684,44.9508]]]}},{"type":"Feature","properties":{},"geometry":{"type":"Polygon","coordinates":[[[14.6724,44.9421],[14.6721,44.9417],[14.6731,44.9404],[14.6753,44.9386],[14.6781,44.9381],[14.6784,44.9413],[14.6759,44.9413],[14.6724,44.9421]]]}},{"type":"Feature","properties":{},"geometry":{"type":"Polygon","coordinates":[[[14.8339,44.9975],[14.8335,44.9974],[14.8327,44.9969],[14.8325,44.9952],[14.8332,44.9945],[14.8344,44.9947],[14.8359,44.995],[14.8367,44.9959],[14.8354,44.9975],[14.8339,44.9975]]]}},{"type":"Feature","properties":{},"geometry":{"type":"Polygon","coordinates":[[[13.7195,44.9457],[13.7161,44.9446],[13.7139,44.9395],[13.7181,44.9344],[13.7257,44.928],[13.7322,44.9283],[13.7333,44.9245],[13.7389,44.919],[13.7442,44.9174],[13.7432,44.9062],[13.7375,44.9036],[13.7307,44.9212],[13.7247,44.9218],[13.726,44.9152],[13.7151,44.9174],[13.7128,44.9136],[13.7221,44.9134],[13.7264,44.9071],[13.7326,44.9044],[13.7362,44.8997],[13.7442,44.8983],[13.7396,44.8924],[13.7511,44.8849],[13.7593,44.8882],[13.7609,44.8983],[13.7652,44.8995],[13.7751,44.9011],[13.7839,44.9053],[13.7842,44.9123],[13.7786,44.9209],[13.77,44.9226],[13.7563,44.9286],[13.7482,44.9405],[13.7195,44.9457]]]}},{"type":"Feature","properties":{},"geometry":{"type":"Polygon","coordinates":[[[16.2598,42.396],[16.2524,42.396],[16.2453,42.3956],[16.2436,42.3947],[16.2479,42.3919],[16.256,42.3904],[16.2671,42.3882],[16.2725,42.3867],[16.2773,42.3885],[16.2768,42.3909],[16.2699,42.3923],[16.2663,42.3943],[16.2598,42.396]]]}}]}